{"type":"FeatureCollection","features":[{"id":"0","type":"Feature","properties":{},"geometry":{"type":"Point","coordinates":[3.503070792505524,52.583681412800246]}},{"id":"1","type":"Feature","properties":{},"geometry":{"type":"Point","coordinates":[3.3508929173184727,52.6010505322097]}},{"id":"2","type":"Feature","properties":{},"geometry":{"type":"Point","coordinates":[3.396667367562845,52.53590734518013]}},{"id":"3","type":"Feature","properties":{},"geometry":{"type":"Point","coordinates":[3.0764379524997167,52.481671190359926]}},{"id":"4","type":"Feature","properties":{},"geometry":{"type":"Point","coordinates":[3.387400303657985,52.55004362806747]}},{"id":"5","type":"Feature","properties":{},"geometry":{"type":"Point","coordinates":[3.391632996522246,52.546730308793116]}},{"id":"6","type":"Feature","properties":{},"geometry":{"type":"Point","coordinates":[3.410834817182161,52.55002755840269]}},{"id":"7","type":"Feature","properties":{},"geometry":{"type":"Point","coordinates":[3.407092305388124,52.547217570524076]}},{"id":"8","type":"Feature","properties":{},"geometry":{"type":"Point","coordinates":[3.3969121708131103,52.536895445834915]}},{"id":"9","type":"Feature","properties":{},"geometry":{"type":"Point","coordinates":[3.38770144434251,52.522289923712705]}},{"id":"10","type":"Feature","properties":{},"geometry":{"type":"Point","coordinates":[3.5531857841940404,52.51619306249642]}},{"id":"11","type":"Feature","properties":{},"geometry":{"type":"Point","coordinates":[3.3653425880860817,52.58264906163044]}},{"id":"12","type":"Feature","properties":{},"geometry":{"type":"Point","coordinates":[3.2758816060156115,52.581551724395275]}},{"id":"13","type":"Feature","properties":{},"geometry":{"type":"Point","coordinates":[3.271866050278604,52.58135423839497]}},{"id":"14","type":"Feature","properties":{},"geometry":{"type":"Point","coordinates":[1.1176004470462775,53.321976508583056]}},{"id":"15","type":"Feature","properties":{},"geometry":{"type":"Point","coordinates":[1.117540449065659,53.32185572058157]}},{"id":"16","type":"Feature","properties":{},"geometry":{"type":"Point","coordinates":[1.327619706192866,53.390132126741015]}},{"id":"17","type":"Feature","properties":{},"geometry":{"type":"Point","coordinates":[1.0269939756046669,53.292366908938774]}},{"id":"18","type":"Feature","properties":{},"geometry":{"type":"Point","coordinates":[1.0559652399571877,53.30186111827693]}},{"id":"19","type":"Feature","properties":{},"geometry":{"type":"Point","coordinates":[1.0378523864582883,53.295958255063184]}},{"id":"20","type":"Feature","properties":{},"geometry":{"type":"Point","coordinates":[1.0377363537236026,53.29595247966707]}},{"id":"21","type":"Feature","properties":{},"geometry":{"type":"Point","coordinates":[1.0379954369508395,53.29588859524276]}},{"id":"22","type":"Feature","properties":{},"geometry":{"type":"Point","coordinates":[1.0504457519486603,53.301059232069214]}},{"id":"23","type":"Feature","properties":{},"geometry":{"type":"Point","coordinates":[1.5036221910519265,53.32905596011798]}},{"id":"24","type":"Feature","properties":{},"geometry":{"type":"Point","coordinates":[1.3926092979951696,53.42089645929818]}},{"id":"25","type":"Feature","properties":{},"geometry":{"type":"Point","coordinates":[1.4085310281810919,53.40781065689775]}},{"id":"26","type":"Feature","properties":{},"geometry":{"type":"Point","coordinates":[1.393330727321241,53.41119024061566]}},{"id":"27","type":"Feature","properties":{},"geometry":{"type":"Point","coordinates":[2.0086938736789253,53.6787066205101]}},{"id":"28","type":"Feature","properties":{},"geometry":{"type":"Point","coordinates":[2.008538062319748,53.6786688361915]}},{"id":"29","type":"Feature","properties":{},"geometry":{"type":"Point","coordinates":[2.2901207484669284,53.79323673821614]}},{"id":"30","type":"Feature","properties":{},"geometry":{"type":"Point","coordinates":[2.1901769849477972,53.79050545876161]}},{"id":"31","type":"Feature","properties":{},"geometry":{"type":"Point","coordinates":[2.013071838139209,53.676572072418324]}},{"id":"32","type":"Feature","properties":{},"geometry":{"type":"Point","coordinates":[1.962348286644918,53.701797700611806]}},{"id":"33","type":"Feature","properties":{},"geometry":{"type":"Point","coordinates":[1.938178563845325,53.71440072122135]}},{"id":"34","type":"Feature","properties":{},"geometry":{"type":"Point","coordinates":[2.0372916763815634,53.66406193953642]}},{"id":"35","type":"Feature","properties":{},"geometry":{"type":"Point","coordinates":[1.9862380684412286,53.69020643635555]}},{"id":"36","type":"Feature","properties":{},"geometry":{"type":"Point","coordinates":[1.3530167009868523,53.13127224082161]}},{"id":"37","type":"Feature","properties":{},"geometry":{"type":"Point","coordinates":[1.503997826431981,53.32867635696012]}},{"id":"38","type":"Feature","properties":{},"geometry":{"type":"Point","coordinates":[1.4011966052677827,54.96439536007135]}},{"id":"39","type":"Feature","properties":{},"geometry":{"type":"Point","coordinates":[1.4013886446514232,54.965145119511774]}},{"id":"40","type":"Feature","properties":{},"geometry":{"type":"Point","coordinates":[1.4203333638601425,54.963386858168846]}},{"id":"41","type":"Feature","properties":{},"geometry":{"type":"Point","coordinates":[1.419970969950737,54.96305652726546]}},{"id":"42","type":"Feature","properties":{},"geometry":{"type":"Point","coordinates":[1.4202956742121766,54.963387986276054]}},{"id":"43","type":"Feature","properties":{},"geometry":{"type":"Point","coordinates":[1.4580746792615558,54.95949680177264]}},{"id":"44","type":"Feature","properties":{},"geometry":{"type":"Point","coordinates":[1.4585509146865103,54.96010419995192]}},{"id":"45","type":"Feature","properties":{},"geometry":{"type":"Point","coordinates":[1.460327429181893,54.95898528627534]}},{"id":"46","type":"Feature","properties":{},"geometry":{"type":"Point","coordinates":[1.460262579752405,54.959047378136646]}},{"id":"47","type":"Feature","properties":{},"geometry":{"type":"Point","coordinates":[1.4635712256496471,54.95706702794452]}},{"id":"48","type":"Feature","properties":{},"geometry":{"type":"Point","coordinates":[1.4652100545459152,54.94544987674027]}},{"id":"49","type":"Feature","properties":{},"geometry":{"type":"Point","coordinates":[1.4660479490709266,54.94616939432899]}},{"id":"50","type":"Feature","properties":{},"geometry":{"type":"Point","coordinates":[2.0813038851240506,54.8731824102087]}},{"id":"51","type":"Feature","properties":{},"geometry":{"type":"Point","coordinates":[2.081302454628618,54.87324530838701]}},{"id":"52","type":"Feature","properties":{},"geometry":{"type":"Point","coordinates":[2.082440908337696,54.869662887458006]}},{"id":"53","type":"Feature","properties":{},"geometry":{"type":"Point","coordinates":[2.082462963189522,54.86974843059759]}},{"id":"54","type":"Feature","properties":{},"geometry":{"type":"Point","coordinates":[2.466987830933073,54.254606486037474]}},{"id":"55","type":"Feature","properties":{},"geometry":{"type":"Point","coordinates":[2.4152770442383518,54.189313576403364]}},{"id":"56","type":"Feature","properties":{},"geometry":{"type":"Point","coordinates":[2.4154305423956246,54.189296345786516]}},{"id":"57","type":"Feature","properties":{},"geometry":{"type":"Point","coordinates":[2.1517552591330023,53.95776377494018]}},{"id":"58","type":"Feature","properties":{},"geometry":{"type":"Point","coordinates":[2.151610585984427,53.95774315895237]}},{"id":"59","type":"Feature","properties":{},"geometry":{"type":"Point","coordinates":[2.127788827128631,53.93455870975588]}},{"id":"60","type":"Feature","properties":{},"geometry":{"type":"Point","coordinates":[1.4735494448446995,53.11073791598878]}},{"id":"61","type":"Feature","properties":{},"geometry":{"type":"Point","coordinates":[1.4539189255893568,53.1019528616588]}},{"id":"62","type":"Feature","properties":{},"geometry":{"type":"Point","coordinates":[1.4306687893888532,53.090662500544646]}},{"id":"63","type":"Feature","properties":{},"geometry":{"type":"Point","coordinates":[1.4291077077565637,53.0863715416225]}},{"id":"64","type":"Feature","properties":{},"geometry":{"type":"Point","coordinates":[1.4290307917311909,53.086433457859876]}},{"id":"65","type":"Feature","properties":{},"geometry":{"type":"Point","coordinates":[1.4277155754204283,53.083188590224424]}},{"id":"66","type":"Feature","properties":{},"geometry":{"type":"Point","coordinates":[1.2668948681175876,53.172602804286235]}},{"id":"67","type":"Feature","properties":{},"geometry":{"type":"Point","coordinates":[1.266788019000023,53.172655191251884]}},{"id":"68","type":"Feature","properties":{},"geometry":{"type":"Point","coordinates":[1.2450530668149338,53.187179943601144]}},{"id":"69","type":"Feature","properties":{},"geometry":{"type":"Point","coordinates":[1.2386878716391176,53.1912934679496]}},{"id":"70","type":"Feature","properties":{},"geometry":{"type":"Point","coordinates":[1.238779473030868,53.19124987071759]}},{"id":"71","type":"Feature","properties":{},"geometry":{"type":"Point","coordinates":[1.2345820706237625,53.19394776840268]}},{"id":"72","type":"Feature","properties":{},"geometry":{"type":"Point","coordinates":[1.2347601244594648,53.19398636850542]}},{"id":"73","type":"Feature","properties":{},"geometry":{"type":"Point","coordinates":[1.2054211931162888,53.21292220669222]}},{"id":"74","type":"Feature","properties":{},"geometry":{"type":"Point","coordinates":[1.2080361911432367,53.237100605303866]}},{"id":"75","type":"Feature","properties":{},"geometry":{"type":"Point","coordinates":[1.2079908886817095,53.23710891439738]}},{"id":"76","type":"Feature","properties":{},"geometry":{"type":"Point","coordinates":[1.197841867904425,53.26787353508653]}},{"id":"77","type":"Feature","properties":{},"geometry":{"type":"Point","coordinates":[1.1465360076328244,53.250994091291815]}},{"id":"78","type":"Feature","properties":{},"geometry":{"type":"Point","coordinates":[1.0855223680526513,53.290472067205606]}},{"id":"79","type":"Feature","properties":{},"geometry":{"type":"Point","coordinates":[1.0856404874998635,53.290380643225106]}},{"id":"80","type":"Feature","properties":{},"geometry":{"type":"Point","coordinates":[1.0603540660320252,53.30675469935296]}},{"id":"81","type":"Feature","properties":{},"geometry":{"type":"Point","coordinates":[1.0604496680211677,53.306685409683475]}},{"id":"82","type":"Feature","properties":{},"geometry":{"type":"Point","coordinates":[1.0587578827755655,53.30775777164592]}},{"id":"83","type":"Feature","properties":{},"geometry":{"type":"Point","coordinates":[0.9910000984794409,53.35123608764321]}},{"id":"84","type":"Feature","properties":{},"geometry":{"type":"Point","coordinates":[0.9908595361805732,53.35130150881337]}},{"id":"85","type":"Feature","properties":{},"geometry":{"type":"Point","coordinates":[0.9609360638475014,53.37061485803989]}},{"id":"86","type":"Feature","properties":{},"geometry":{"type":"Point","coordinates":[0.9608400365698889,53.370680286242326]}},{"id":"87","type":"Feature","properties":{},"geometry":{"type":"Point","coordinates":[0.9763828382019304,53.26174833527734]}},{"id":"88","type":"Feature","properties":{},"geometry":{"type":"Point","coordinates":[1.0598239170141528,53.26310878734836]}},{"id":"89","type":"Feature","properties":{},"geometry":{"type":"Point","coordinates":[1.1018648779312643,53.27943799393319]}},{"id":"90","type":"Feature","properties":{},"geometry":{"type":"Point","coordinates":[1.101506033250278,53.28008857992259]}},{"id":"91","type":"Feature","properties":{},"geometry":{"type":"Point","coordinates":[1.1586818482933623,53.310213813276384]}},{"id":"92","type":"Feature","properties":{},"geometry":{"type":"Point","coordinates":[1.140010807142534,53.25524378640095]}},{"id":"93","type":"Feature","properties":{},"geometry":{"type":"Point","coordinates":[1.340664528661293,53.13912192542135]}},{"id":"94","type":"Feature","properties":{},"geometry":{"type":"Point","coordinates":[1.340737856609068,53.13915890850323]}},{"id":"95","type":"Feature","properties":{},"geometry":{"type":"Point","coordinates":[1.3530090781408253,53.131272225263]}},{"id":"96","type":"Feature","properties":{},"geometry":{"type":"Point","coordinates":[1.3530295817728588,53.13128329724963]}},{"id":"97","type":"Feature","properties":{},"geometry":{"type":"Point","coordinates":[1.3687519391785024,53.12109804742867]}},{"id":"98","type":"Feature","properties":{},"geometry":{"type":"Point","coordinates":[1.409903535113698,53.10851683355555]}},{"id":"99","type":"Feature","properties":{},"geometry":{"type":"Point","coordinates":[1.4188946645846783,53.094160187855806]}},{"id":"100","type":"Feature","properties":{},"geometry":{"type":"Point","coordinates":[1.4190204781806113,53.09422775783251]}},{"id":"101","type":"Feature","properties":{},"geometry":{"type":"Point","coordinates":[1.4195702155629186,53.08584967945068]}}]}