{"type":"FeatureCollection","features":[{"id":"0","type":"Feature","properties":{},"geometry":{"type":"LineString","coordinates":[[4.1072931670593285,51.82588412972478],[4.155354584995944,51.7315962230692],[4.24974662518076,51.50127090847987],[4.262704684413307,51.36559741050601],[4.343970603154803,51.29692434294202],[4.381624078374873,51.1661586083768],[4.379758725882582,51.103622473698564],[4.3116204632063075,51.03663512992482],[4.195224680098769,51.01181766843837],[3.94735526571252,51.01409040142022],[3.715904384396939,51.010524678355885],[3.591828957887392,51.00079294589701],[3.475478615469381,50.93355476825653],[3.3512258660535235,50.86622439983867],[3.2602341123249055,50.79869189167013],[3.112105729700298,50.77286239501088],[2.980570062879845,50.757275074095496],[2.9313192039644895,50.715550725821195]]}},{"id":"1","type":"Feature","properties":{},"geometry":{"type":"LineString","coordinates":[[3.972361643116749,51.02431121070335],[3.973235072007165,51.066008714067436],[3.8830347714846924,51.10842919303931],[3.842773584671038,51.17128200667288],[3.8031298303533236,51.27581868635124],[3.770849493523109,51.333376576630336],[3.6973092387014668,51.422453799906414],[3.5564675006579365,51.49618373866164],[3.4062956989199744,51.512437730858],[3.2894101032715266,51.52320938843532]]}},{"id":"2","type":"Feature","properties":{},"geometry":{"type":"LineString","coordinates":[[3.818269138884222,51.19230769679944],[3.7781116273779283,51.270774788823346],[3.7372330370551223,51.31274183777283],[3.6461861247716283,51.34455612160526],[3.5213429428582286,51.34517822965118]]}},{"id":"3","type":"Feature","properties":{},"geometry":{"type":"LineString","coordinates":[[3.4793472756559614,50.506050952239555],[3.479822908727099,50.552969937907775],[3.4067157202250153,50.61580875027906],[3.3908901202587547,50.68363606498164],[3.4900079942289732,50.745820840635666],[3.5812908980951033,50.8183867771764],[3.680188278443862,50.82827858015945],[3.681403211735512,50.91168224262774],[3.690806533173534,50.98982352371684]]}},{"id":"4","type":"Feature","properties":{},"geometry":{"type":"LineString","coordinates":[[3.774903969182527,50.58266106702546],[3.8093525586546506,50.681481628269026],[3.883780318969652,50.71222130795095],[3.99182564491499,50.77391257276631],[4.058410945170475,50.8098207498049],[4.092289305687309,50.85121505622819],[4.035229932483372,50.87780155451984],[4.027909123145059,50.91957219287233],[4.004181454187579,50.96669743671457],[3.914406214058133,51.01956600987511]]}},{"id":"5","type":"Feature","properties":{},"geometry":{"type":"LineString","coordinates":[[4.234854854759766,50.63604200327476],[4.2864480143696735,50.724113700605805],[4.378906839282548,50.79604572661062],[4.396751637733106,50.84275448824281],[4.399091230253274,50.92092748997202],[4.3437789547494505,51.00499017506885]]}},{"id":"6","type":"Feature","properties":{},"geometry":{"type":"LineString","coordinates":[[4.685729936335628,50.63560423427373],[4.66409460357805,50.71933451450115],[4.683688586309037,50.807685039685396],[4.7022207475725,50.86476555963498],[4.695499688560291,50.906571787266536],[4.499368145298879,50.961389888869405],[4.344834198438835,51.04147083914222]]}},{"id":"7","type":"Feature","properties":{},"geometry":{"type":"LineString","coordinates":[[0.6609238117527105,52.422970349587494],[0.8516252022269463,52.35882579528479],[0.9799440219650966,52.345451981562576],[1.1925815866239082,52.34889691608378],[1.2948628169242675,52.34520514357421],[1.3538263054945507,52.361678457144926],[1.3852039496372957,52.43508309929518],[1.5038364685765184,52.457492354263444],[1.6573596075910864,52.45933488007099],[1.7688286785915086,52.439699765522334],[1.80518762861603,52.356680376948376],[1.7989366144699461,52.273223479981894],[1.7952404621257305,52.09597076227253],[1.8134056171335997,52.04924436203369]]}},{"id":"8","type":"Feature","properties":{},"geometry":{"type":"LineString","coordinates":[[2.6785361502880525,52.826114020426154],[2.6458574662483243,52.61235054521405],[2.6212068423329526,52.49240688963848],[2.613399587074154,52.408994168751455],[2.5214617736394946,52.24187881386451],[2.3879905555983583,52.0692655881692],[2.271546058515284,51.94872327778009],[2.222024578048345,51.88585917120413]]}},{"id":"9","type":"Feature","properties":{},"geometry":{"type":"LineString","coordinates":[[3.6067619982847363,52.757249573722845],[3.67139769633843,52.49110839311901],[3.6442632633808434,52.38702362866222],[3.65094240886514,52.26190183897563],[3.6404985243582884,52.12644709171339],[3.520796214184212,52.0280071416672]]}},{"id":"11","type":"Feature","properties":{},"geometry":{"type":"LineString","coordinates":[[4.785953956099228,52.67799440768081],[5.416278279539069,52.72266447662248],[5.676554575850781,52.71707194454161]]}},{"id":"12","type":"Feature","properties":{},"geometry":{"type":"LineString","coordinates":[[5.523988571029104,51.92917886202281],[5.116932606698674,51.91858923879472],[4.396750860814693,51.994494373997206]]}}]}