{"type":"FeatureCollection","features":[{"id":"0","type":"Feature","properties":{},"geometry":{"type":"Polygon","coordinates":[[[0.6652392348658134,54.92334457301573],[0.7377964691839959,54.878098319446806],[0.7657241220732751,54.85745102256627],[0.7880998020558126,54.83812646763798],[0.8049336429886869,54.8201278233398],[0.8174703789150841,54.798903648704595],[0.8257136028898614,54.77445527628779],[0.8296689393876717,54.74678359586008],[0.8293440298082964,54.71588905540398],[0.8336463228391648,54.69079737723466],[0.8425693973429208,54.671508075697005],[0.856110749134393,54.65802015649152],[0.8963969985055765,54.64213832980813],[0.9865247756281066,54.614498506434074],[1.0196467474931084,54.60217493509556],[1.0518874151372477,54.587254254976415],[1.0832415171973542,54.56973710704067],[1.1137041332276285,54.54962411652452],[1.1396751471877227,54.530292593778434],[1.1611623864648555,54.51174549499531],[1.1781731592906375,54.4939852700521],[1.1907142546629874,54.47701386487173],[1.1997731249715897,54.46084734694987],[1.2053544271939136,54.44548654020238],[1.2074624055917218,54.43093196428154],[1.2067247644018473,54.40289316246015],[1.2093319119530161,54.388059894589844],[1.22555628636341,54.34139550342193],[1.2291302748861943,54.326575965086036],[1.2337787700501714,54.286603850817706],[1.2371494029955639,54.27635707736738],[1.2419101744893508,54.26784650760156],[1.248060853220222,54.26107198186123],[1.2598095081164207,54.253426824497325],[1.3000847608485875,54.23551715653715],[1.3835486909180066,54.20778262255119],[1.6895749525466301,54.128515910492375],[1.7210459425719213,54.1223510029981],[1.7515995850259034,54.11876975419366],[1.7812418224750688,54.11777289685011],[1.970724027487481,54.13254893697823],[2.0454944922259326,54.131539218271826],[2.1685721400194984,54.12334780976737],[2.257188098859402,54.120675729537375],[2.2804022283362344,54.122605092582674],[2.306898917259127,54.12698756348314],[2.3697641293351017,54.143102929960676],[2.4435231264358626,54.16642552779829],[2.510903955247641,54.19693853637599],[2.692266890698772,54.28557913632544],[2.7190696268922436,54.297295312943646],[2.8989373636818283,54.36401592430371],[2.9855013233176066,54.401284913951194],[3.0234064436396695,54.420141055848006],[3.0588249326415107,54.431020830486354],[3.0917341859137117,54.433926485928],[3.122114508378303,54.42886009919771],[3.1499491620341535,54.4158235701897],[3.1735864900348836,54.402786693857635],[3.1930304959985527,54.38975192843015],[3.2082851785406397,54.37672129392326],[3.2193545286988696,54.363696373185824],[3.219848784945732,54.35199066384413],[3.209777007384955,54.341604295561446],[3.1891462086808415,54.332534624668206],[3.1278979946236536,54.31619576760881],[3.0989571810614587,54.30679404525129],[3.044446926456591,54.285530020531034],[2.9944367485422716,54.26001479094179],[2.9489340945693674,54.229928746427184],[2.9245413823114443,54.21593491229531],[2.897942819280063,54.2035599620714],[2.8691372629853236,54.19280244173809],[2.7557056139052003,54.15684613810903],[2.7317703349871847,54.1481154112857],[2.7201686399207263,54.13986334794433],[2.7208927598299617,54.13209350512733],[2.7339358030256453,54.12480565452848],[2.7592917521260745,54.117995787824],[2.8026877127666054,54.102632445376784],[2.836332370925349,54.0849528164683],[2.844914936867654,54.07695862092895],[2.8464810514440835,54.07010052466437],[2.8410343119724586,54.064378808099],[2.816208784827682,54.05358360233086],[2.8039305689413996,54.04575206687185],[2.77965013493831,54.025221242126044],[2.7625829685318957,54.01608449778777],[2.740543297414772,54.00888559814211],[2.7135306365930743,54.00362181385694],[2.6225674077358514,53.99166506474539],[2.5702628861361023,53.98043413992715],[2.535013471851331,53.975425573859745],[2.489833947530066,53.97134037354639],[2.369683327685579,53.96589279952749],[2.272619231120408,53.966319899919306],[2.2405845883213447,53.96904816832163],[2.191064359156277,53.9773418292154],[2.1551419996240324,53.98067145096163],[1.8189386076388976,53.998811135718924],[1.7611065148691183,54.00408208455894],[1.7117742509341947,54.01071737290608],[1.670940822142355,54.01872746085411],[1.3586531034406133,54.111965964614456],[1.3204676281011822,54.12680978450133],[1.3109475163193975,54.12711234736175],[1.299550056371711,54.12381030188843],[1.254035180695674,54.0964189520082],[1.2139485240186485,54.078097730736964],[1.1689005198998814,54.06283357131863],[1.127514270836279,54.05332970502463],[1.0883523368071126,54.04870917053747],[1.0257811193380586,54.045981861916715],[0.9215450263562582,54.05051759458431],[0.9060613671339361,54.04910479507349],[0.8935793042780088,54.046026435228406],[0.8840996346437531,54.04128345522246],[0.8706764232244124,54.02817496058588],[0.8533212943851965,54.00669969033096],[0.8068846179123329,53.93864194043288],[0.7936199579312883,53.90521805547967],[0.7922236094618836,53.87658805361855],[0.8026710312538061,53.852752171631295],[0.824945931575839,53.833707208082366],[0.8439081644932479,53.812882438931574],[0.859560139413836,53.790279439842884],[0.8719051034470162,53.76589951836054],[0.8809471354925341,53.73974371418613],[0.8841676476082049,53.714056607543235],[0.8815773993888221,53.68883877581758],[0.873186752451074,53.66408994684951],[0.8590056739955626,53.639809002743945],[0.8440831373244089,53.6209477773603],[0.8284146007331005,53.607505993202416],[0.811994903774858,53.59948333727896],[0.7948182600230422,53.59687946055152],[0.7845801774685078,53.59955082283183],[0.7812780614519043,53.607499173824124],[0.7849144850956229,53.62072509533822],[0.804571396345252,53.65913244172045],[0.8181887512948833,53.7031471432604],[0.8227284066040275,53.72725785755663],[0.8220576612700341,53.749557389260254],[0.8161684001487407,53.770045589164866],[0.8050538489696666,53.7887216375221],[0.7887085834615448,53.80558404201624],[0.7744655720052047,53.809897243266306],[0.7623383137866027,53.801662151319036],[0.7523361978209704,53.780879457209004],[0.7358770877521729,53.71878235030991],[0.7265729881591229,53.69457751086849],[0.7165506164023937,53.674934977316354],[0.6737193059123017,53.612893372848205],[0.6529726250206312,53.57930475103918],[0.6075940409111714,53.480569891913674],[0.5871881719419665,53.442969968965855],[0.5795970488473564,53.42479363723022],[0.5748650358484682,53.40696092283064],[0.572988431690674,53.3894721270291],[0.5769456839731556,53.35350683954114],[0.5889171640262476,53.31083773693676],[0.6048045221608228,53.265957520977054],[0.6124030351358971,53.23235257894084],[0.6123580186713822,53.20746263346554],[0.6101702230026502,53.195403318407095],[0.6014699823050857,53.172055679522295],[0.5884368382381884,53.149763879041274],[0.571551749174793,53.12853626657927],[0.5492971380513376,53.11005645560078],[0.5082896027950345,53.087461727560985],[0.49733005847604733,53.07979322188825],[0.43018692389856816,53.01055600939629],[0.41740410831772795,52.9942572576894],[0.40794442447973006,52.97802954935373],[0.401804062343934,52.961873631203524],[0.39897926123123695,52.94578997164654],[0.3941275860724331,52.931950574694724],[0.3872503055525292,52.92035522099499],[0.37834804988550164,52.9110035774061],[0.3575464490096839,52.89509255539671],[0.3409579693179255,52.872405506406245],[0.33424403283478976,52.858521526664106],[0.3298937402350148,52.84469031603416],[0.32790481293309925,52.83091210542245],[0.3319295072681734,52.78837169994586],[0.3283927463827534,52.75367206842674],[0.31924922652055787,52.7182731766698],[0.3092056465741573,52.69773106919939],[0.28790701858955087,52.67664467708366],[0.26503482055014643,52.6509398794322],[0.24943565330905926,52.63713067903758],[0.23054184055879637,52.6235284010467],[0.1634459299138059,52.58502863985182],[0.15004241948987876,52.57440576254555],[0.14266550873710443,52.565071528817136],[0.11979443181690531,52.469805119486935],[0.11728483161864516,52.45085865485864],[0.11759787754252668,52.41738771534523],[0.11346631609516415,52.401835133060324],[0.10416404589180175,52.386727973310755],[0.08969614852106489,52.37206509081623],[0.07006741304852288,52.35784465898841],[0.047966716836296545,52.345848219564296],[0.02339286318993355,52.33607437492175],[-0.0036560910465561415,52.32852155729645],[-0.0618686195786153,52.31929963409082],[-0.11672931314461406,52.31586050327117],[-0.14290982481379236,52.3163108451331],[-0.1766246375548302,52.31111566696633],[-0.2178580295527943,52.30026875155429],[-0.26658856064072545,52.283762541266974],[-0.3227891001327537,52.2615881570113],[-0.37146869469558785,52.23931536310515],[-0.41263879211467447,52.216953268408496],[-0.4463108647779786,52.19450953524141],[-0.47249639223383594,52.17199038509053],[-0.5001826773832899,52.151137630117844],[-0.5293705689243229,52.13195020562563],[-0.5600612517410041,52.11442698093261],[-0.5922562460657919,52.09856675891342],[-0.6161319051915349,52.08924976775385],[-0.6317039808783877,52.0864807982344],[-0.6389809698375919,52.09026299527536],[-0.6379641251639807,52.10059786663231],[-0.6292963694547878,52.114030821527365],[-0.6129690393925129,52.13056031444771],[-0.588970223949659,52.15018335715351],[-0.5236634031439159,52.195084192236514],[-0.48810433486820215,52.216747784529055],[-0.4111663524113667,52.25849273618901],[-0.3276633122815826,52.295505883857615],[-0.2836034842723911,52.31190756227475],[-0.19918959201610426,52.339122778987075],[-0.12351818183736953,52.35917752552515],[-0.08655374163333798,52.36530049355327],[-0.04942111459316625,52.36912686599275],[-0.01679375810435202,52.37740491054993],[-0.0027506139569094716,52.38405815203912],[0.03653255358346227,52.41194832295828],[0.04183230350499375,52.416659508050195],[0.05303622054217486,52.43811432848166],[0.08005164725291658,52.51804645739862],[0.09874873915066844,52.561713636342766],[0.10969631296366383,52.580866652747225],[0.12177891986066622,52.597184766589436],[0.1349956218509739,52.61066763595731],[0.19777978161280016,52.65795129299492],[0.22056284962808023,52.67708642780107],[0.24503075691969528,52.699689609981775],[0.2540637459605225,52.713347090121296],[0.25968256570233444,52.728927753968485],[0.2618842121192081,52.746432034829404],[0.259935861684653,52.82249481048655],[0.260671535655395,52.840823337143675],[0.26440155224819156,52.856645829729],[0.27112864647160995,52.86996205828113],[0.280854512473655,52.88077154902086],[0.3399773120697223,52.919305610865436],[0.3470514761082621,52.92747492443279],[0.3502752325682142,52.93670236571342],[0.34964632386667455,52.94698821558651],[0.34516193550287266,52.95833237230572],[0.3366793434215534,52.96529518033331],[0.32419929754412463,52.96787580537669],[0.30772494429171354,52.966073032574094],[0.2677868089727007,52.95314442175185],[0.21529256417374465,52.929608135202294],[0.17503675492364698,52.915209578399825],[0.025285669199061875,52.883224593962545],[0.004391885248179797,52.87754861528351],[-0.027347832562925067,52.8647254019018],[-0.07703839677169941,52.831971649248466],[-0.10976751375361594,52.81394939437694],[-0.13767741254968882,52.80148217738646],[-0.17490969350849137,52.787614282990695],[-0.19701780023555873,52.78015247892182],[-0.24563941342715295,52.767671040963336],[-0.3503149029157657,52.74844673505498],[-0.3927617134527518,52.73636450323813],[-0.41426779966545607,52.72802005715223],[-0.4610109955524789,52.7052004767121],[-0.5780694039666562,52.63876069135606],[-0.5950105272569749,52.63309587976607],[-0.6073037776782894,52.63386651851418],[-0.6149544161944583,52.641073961958014],[-0.6179637209399667,52.65471907252188],[-0.6112083059277573,52.66980716160242],[-0.5946773846985863,52.68633673780525],[-0.568358109283314,52.704303917797795],[-0.5322355713366642,52.7237024168264],[-0.45128620629051086,52.761001802765165],[-0.35871471512346037,52.79628450681072],[-0.3149170320577498,52.8101083703044],[-0.2750758502108473,52.82037259963013],[-0.23920380026831625,52.82708100876494],[-0.2073115908683287,52.83023704979793],[-0.18076866932693783,52.83553029203994],[-0.15957325509728246,52.84296435352633],[-0.14372512290255185,52.852542101309396],[-0.1332256088480166,52.864265652646935],[-0.10681358376040793,52.878408900365095],[-0.06446874499624813,52.894961496070415],[-0.006165233626970111,52.91390673196531],[0.06812831755459924,52.935221506031745],[0.2962266483027112,52.99842839197515],[0.33700400196454006,53.01394062583469],[0.3719325585821046,53.03245651101679],[0.4010117882224923,53.05398118141251],[0.42423873512742794,53.07851887170002],[0.44720324204979317,53.0998990088971],[0.46990003158135785,53.11812171354334],[0.4923239059926739,53.13318710452095],[0.5144697524274875,53.1450952988744],[0.5303821383976932,53.15801443066148],[0.5400564601060956,53.17194694283439],[0.5434872554963932,53.186894287898305],[0.5363693999838544,53.21964714131256],[0.5233243523695372,53.255709487759034],[0.5145735480994508,53.27498106615707],[0.5085762295730829,53.29602610932349],[0.5053356148134772,53.31884505487844],[0.5048556157943378,53.343438155949],[0.5133534158672934,53.419140904856604],[0.5271677418184942,53.486369888071465],[0.54898139187819,53.55719338784241],[0.5592147562484492,53.579716252778454],[0.5714786273758343,53.60056290684042],[0.5857746512102651,53.619732758768045],[0.6400979956697549,53.680889752767534],[0.6570549363292855,53.705251813113954],[0.6699231734857987,53.73410865340375],[0.6748226969195268,53.750223013311846],[0.6819739030434765,53.77810892282113],[0.6855869062407092,53.80020489055471],[0.6823596908220654,53.80614965891341],[0.6745406525072847,53.80771455983187],[0.6621317655194756,53.80489871827834],[0.605377952869016,53.78318221859979],[0.5337854793943704,53.760275500990375],[0.4646124323771954,53.730510717948256],[0.4455687563536187,53.718377117853386],[0.4299938006339131,53.704884497859716],[0.41788565064968575,53.69003418112131],[0.40924172945628395,53.673827180672596],[0.40357245903335187,53.658964758836014],[0.4008741890046948,53.64544730398112],[0.40114384580267054,53.633274988720686],[0.40437893041275447,53.62244777055319],[0.40017513608448796,53.61093064624214],[0.3885387511393185,53.5987229025215],[0.36947682884980704,53.58582244987452],[0.34299718934644446,53.572225826191634],[0.3139561517571637,53.56051729353235],[0.2823520723123064,53.550694970315135],[0.24818262770656985,53.54275679792749],[0.2114448163600454,53.53670053964476],[0.17424808140797388,53.53433818541463],[0.1365828131149438,53.53566918092732],[0.09843912387550406,53.5406929476736],[-0.017713576549393917,53.565560284883134],[-0.23716066568220284,53.60829920288066],[-0.30199509921174916,53.61911589921803],[-0.39413114819690676,53.627488755278065],[-0.4740685989577263,53.631060348709184],[-0.5291070467453217,53.62883734050403],[-0.5903383710617565,53.621686158705295],[-0.6211377648347195,53.620269105882066],[-0.6513543741418912,53.62162751648763],[-0.6809941345759443,53.625761731501036],[-0.7100627827931906,53.63267207974426],[-0.7244123439946499,53.640197608686705],[-0.724035843866106,53.64834373987532],[-0.7089247477805657,53.657110475251926],[-0.6790689577381389,53.66649238906313],[-0.6462564739515552,53.67351656212555],[-0.6104911529324332,53.67818050480266],[-0.5717778613752236,53.68048149458783],[-0.5301224757726251,53.680416578161136],[-0.39656006966526003,53.67549894896475],[-0.3491824816284708,53.672279981834905],[-0.29968224756179745,53.6663355715639],[-0.24806978401308344,53.65766292257259],[-0.19435634305290114,53.64625912565957],[0.04879352112026981,53.586631613983585],[0.06945955131130446,53.580308678724265],[0.09512494111274344,53.568736396442674],[0.10870199911872101,53.56597525381372],[0.1256358320611674,53.566058379147655],[0.14592992314880252,53.56898438989837],[0.1933086817241511,53.57970230677104],[0.26481647116244367,53.589654422082006],[0.2856776452792467,53.59725729837974],[0.3035130083317005,53.60996402244145],[0.3183260880010811,53.62777596515378],[0.3420858860595614,53.671956576163154],[0.36654392526955787,53.70951332586847],[0.3790319969833128,53.72580762140496],[0.3974009421310695,53.740798037991325],[0.42165547667509173,53.754481932076075],[0.45179924662469834,53.76685577773092],[0.5214433714529093,53.78948546928492],[0.581375859666633,53.81416680903143],[0.6697389013275548,53.859396900559275],[0.6847648655003532,53.86769728726574],[0.698688376435465,53.87854903031178],[0.711511054241468,53.891952518315804],[0.723234107086193,53.907908101834046],[0.7853893264167178,54.01490614070054],[0.8003153350497338,54.03577496791403],[0.8159217291683467,54.05322168923839],[0.8322056453786715,54.067246040282114],[0.8775343073747067,54.09379742339614],[0.8984919304493149,54.102746259435335],[0.9100905605381708,54.104378457987394],[0.9394243641014461,54.101738191908765],[0.9753403979098576,54.093767300727286],[1.0130780346431985,54.08810406830776],[1.0326316846419366,54.08613730731676],[1.042746056591389,54.08758128835421],[1.0434225892261144,54.09243840315865],[1.0346581065060836,54.100708776144515],[1.0046829687135328,54.12183151184273],[0.9993788754720826,54.12903448143976],[1.0005367582578628,54.134000069839345],[1.0656520523221273,54.162706473043464],[1.0819518293914432,54.172987941686216],[1.0961223602988068,54.18479893999914],[1.1081633461154985,54.198140209743016],[1.1180740148841117,54.21301237464082],[1.1256626633402724,54.23160460675623],[1.130928080772718,54.2539173035967],[1.133867778298999,54.279950711660625],[1.1344779815855608,54.30970492630989],[1.1312942078772776,54.3691448163695],[1.1222169977430438,54.42849267653985],[1.112661852229388,54.4549419471119],[1.0988225690798665,54.47817711411917],[1.0806952736763156,54.49819670930568],[1.036402445254618,54.53037565556992],[0.974053289920924,54.56795779836837],[0.9499588936013581,54.57727607224279],[0.9220047007156804,54.584807354911],[0.8901923392179886,54.59054899274393],[0.8545244640846148,54.59449797237161],[0.8246336379941527,54.60082858368136],[0.8005171617823953,54.60954507839107],[0.7821743639488344,54.62065089549899],[0.7696066090125107,54.63414866303164],[0.7588754385863005,54.649967300954295],[0.7499810671512055,54.66810728426745],[0.7429243291631207,54.68856900771651],[0.7261071226705162,54.750891520861025],[0.712957901401484,54.782391591127194],[0.6950520861586065,54.81008185671251],[0.6839121898717122,54.82302628258262],[0.6713130873881609,54.83536971272147],[0.6568251899603065,54.845959357081945],[0.6404489564042354,54.85479455236813],[0.622185335364806,54.86187455087583],[0.50616557040277,54.89386919211177],[0.4951901349843517,54.90279603408717],[0.49950968102759763,54.913181848022205],[0.5191365172620597,54.92502511853771],[0.554086457683469,54.93831857235438],[0.5901032099596105,54.942470413355885],[0.6271626961121692,54.937479484630764],[0.6652392348658134,54.92334457301573]]]}},{"id":"1","type":"Feature","properties":{},"geometry":{"type":"Polygon","coordinates":[[[1.201263547787697,54.050880378949145],[1.2122865697678522,54.031881808306004],[1.226942027074631,54.01572452959024],[1.245228800415192,54.00240722563065],[1.2671472471853382,53.991928257471514],[1.3335596013313906,53.969700705622444],[1.3607758316359393,53.95606061507048],[1.3707928617057055,53.9479025802596],[1.378923377217672,53.93828821806892],[1.3851678021397458,53.92721790790056],[1.3895269527712544,53.91469194206154],[1.3952350688087354,53.89217341713254],[1.3987039783557993,53.864762490439475],[1.4018891506102373,53.85736859765533],[1.422398111757048,53.83304284751805],[1.4503526390604888,53.78306877670901],[1.464090721957513,53.763939555061725],[1.4703349820146312,53.75815609325467],[1.4878671054880939,53.74708097817601],[1.51184396923488,53.73765662690641],[1.541437052670718,53.732872247330455],[1.5739351187942046,53.73111833572485],[1.6011841508291689,53.72757838704981],[1.6128395359084067,53.725139789397346],[1.6199316165873534,53.71842891817302],[1.6224603658645826,53.707446569800766],[1.6204285160478202,53.69219302766129],[1.6089711215649167,53.656022748121046],[1.6058142613126332,53.642257297694364],[1.6046328522465807,53.62336647703878],[1.6029169125294855,53.6170540925962],[1.5992215738417552,53.61243462269791],[1.593547054152211,53.60950788909836],[1.5858930945909704,53.60827361088492],[1.5792446578145936,53.61291415144712],[1.5735992663248086,53.62342964920392],[1.5689552318650173,53.63982020553027],[1.5653116538276481,53.66208588502133],[1.5572549023460986,53.67943604779705],[1.5447824762867568,53.691869827598296],[1.5278949371036328,53.699385878253146],[1.506595915644735,53.701982375055735],[1.4856735015118525,53.7074400310915],[1.4651235542819945,53.715759007755615],[1.4449420695741713,53.72693945785829],[1.4251251758097185,53.74098152581991],[1.3949592982891525,53.766608968279364],[1.3846178186550573,53.77819679330888],[1.3653019213037012,53.809253943657744],[1.3515829038422238,53.83866895350223],[1.3361073779624975,53.881357781752705],[1.329299058904202,53.89427690932403],[1.3211545138143026,53.90417381263211],[1.3116746098280223,53.91104824045278],[1.3008607811947432,53.91489989721189],[1.2763568526053657,53.921701014342155],[1.24801822080776,53.92729721418017],[1.2352087047214275,53.932257951614154],[1.2242367768630351,53.939532673344],[1.2151015350324128,53.949121868402806],[1.1993244709471236,53.97205385701028],[1.1896665300406863,53.982205360764375],[1.1572582810080807,54.0073113691319],[1.1376003743683554,54.02888879550217],[1.114968304835994,54.04054883579125],[1.0981445839462365,54.04714834669118],[1.0925075194200549,54.05349449456012],[1.0980622956928305,54.05958889721192],[1.1148137688259667,54.06543004380349],[1.1427664605948102,54.0710132914677],[1.1664986433473212,54.07044789058899],[1.185999907453741,54.06373625746995],[1.201263547787697,54.050880378949145]]]}},{"id":"2","type":"Feature","properties":{},"geometry":{"type":"Polygon","coordinates":[[[-0.10902840741195477,54.452268344666926],[-0.04392012616447745,54.47795827415545],[0.02191937712644249,54.508207207703336],[0.08507408113881587,54.53949849709397],[0.15536671168436317,54.56863512131425],[0.174515200328159,54.57294587449709],[0.1926450006767469,54.57422628808438],[0.20975197382207483,54.57247677433035],[0.225832414479592,54.56769772257283],[0.23389636570132644,54.561303174361406],[0.2339465553558092,54.55329476130308],[0.22598765694361517,54.5436725424577],[0.1807499795680837,54.51473504879859],[0.15498754340993354,54.50340387012945],[0.14491495075480154,54.49630071492625],[0.137213104871149,54.48696434942527],[0.1318815732235803,54.47539521342847],[0.1289191403732603,54.46159359566565],[0.11710233103513183,54.38521746319248],[0.11301159703229045,54.37367677235258],[0.1077642627133105,54.364682826726785],[0.10136017747976983,54.35823548266387],[0.0905882434282152,54.3512533648944],[0.07545113594796932,54.34373533434274],[0.032093885436893906,54.3270846335639],[0.010439644712423398,54.32197229290113],[-0.00901714630736089,54.32034387322722],[-0.02628171070579173,54.32220037292549],[-0.04135818885046452,54.327542677673904],[-0.07267135208063435,54.343770926798555],[-0.10554748859068153,54.367389432135724],[-0.1197251679080118,54.37989766089555],[-0.1406997432548619,54.404243451870684],[-0.14749195889472572,54.416082364073134],[-0.14448326324769328,54.42803362873006],[-0.1316650398184565,54.440096625910954],[-0.10902840741195477,54.452268344666926]]]}},{"id":"3","type":"Feature","properties":{},"geometry":{"type":"Polygon","coordinates":[[[5.571864925606965,55.24519219875632],[5.601010471029802,55.2468623422593],[5.621042129470108,55.24314434695301],[5.6319545162421525,55.23404275210573],[5.633749653538535,55.21955996431741],[5.626436949737236,55.19969625613645],[5.617904848552926,55.161123940961396],[5.616527284099211,55.101946837356635],[5.613833991376182,55.07597649935269],[5.603234777199805,55.0125631235923],[5.599517310938084,54.98203782037588],[5.598242303932247,54.95460645026964],[5.599404271431165,54.93026918338028],[5.602998886361848,54.90902602716299],[5.6101324463671345,54.88885076378266],[5.620800142153829,54.86974282980639],[5.634997728253133,54.851701347335606],[5.687897329704234,54.79733783631813],[5.741132568772614,54.7353614287673],[5.781220759677722,54.69997879033603],[5.847447622724372,54.65124033750989],[5.893667534630386,54.614386278899765],[5.911838350763052,54.59621422458019],[5.92487231992617,54.57873569250736],[5.932776737352933,54.561952258557604],[5.9380103764262975,54.52864104967632],[5.9433920677868,54.47015135755109],[5.949750669090599,54.43566728606508],[5.954642047341696,54.421816033286696],[5.968243377574555,54.39959738425723],[5.9879910324240395,54.38123000137818],[6.081654251481233,54.32308626167782],[6.133745284035708,54.29370599167216],[6.211333207073575,54.25375450809356],[6.246583280182957,54.22977778682155],[6.271175159859761,54.20422054973994],[6.284911617203099,54.18667970047264],[6.315244462488522,54.14207209240836],[6.3397868529771255,54.10190856705654],[6.344789286633002,54.04311454559237],[6.348020805038809,54.02285284225942],[6.35322243109569,54.00296515060166],[6.36952526920748,53.96431085095626],[6.372486503949999,53.93489955455228],[6.36928694983044,53.89521753821939],[6.359947698604303,53.84526384399453],[6.34449902460754,53.785036394393636],[6.330058000496119,53.73693966902456],[6.316606904232986,53.70097450615161],[6.304130264883857,53.677141628137015],[6.292614797695149,53.66544164298628],[6.276877100857065,53.64269731870085],[6.272650722138698,53.631654002318164],[6.270850010792265,53.620830349443956],[6.271417842004756,53.60951268487424],[6.274352309495109,53.597701001062816],[6.287312687086791,53.572594855315536],[6.306903087232722,53.546445300511145],[6.343205808553797,53.50723537277139],[6.3519275093033105,53.49611754241632],[6.36245045112268,53.47750859425117],[6.377849320588133,53.429860076293274],[6.38243197010284,53.403118700103015],[6.383280669876263,53.37762758352657],[6.386330109964627,53.364807463557725],[6.392468113556138,53.35175629844794],[6.4016917372004345,53.33847365616848],[6.413997931039376,53.32495886709144],[6.444409304614454,53.29904530006453],[6.462511671676805,53.286645088927735],[6.539834180476621,53.240017005929545],[6.56402172619664,53.22112379516211],[6.675770275122985,53.11183901817265],[6.745196884906831,53.03512021138183],[6.7724811713146975,52.99962762166093],[6.811675071093846,52.93569881977436],[6.846539095987555,52.888209132340144],[6.851946034069207,52.87715794243152],[6.851658127102831,52.86858119672993],[6.845678624183988,52.86247880047646],[6.834008806109256,52.85884987299006],[6.8208440400164845,52.85970411656559],[6.8061801485122615,52.86504110798926],[6.790012091093449,52.87486037464055],[6.772333956925744,52.88916139353406],[6.736566850846323,52.92163150300704],[6.700240680234134,52.95925878401132],[6.685191568331248,52.977327347221696],[6.673332583342871,52.99400733358403],[6.664668527595031,53.00929962431762],[6.659203590387203,53.02320485379853],[6.649569916306191,53.03838262178654],[6.635762267265595,53.054831996944856],[6.6177746416962515,53.07255161865863],[6.524540158822536,53.15261815011643],[6.492644141821321,53.181889041676],[6.427544375697425,53.25846858721871],[6.4111108525377976,53.27382035980251],[6.374363599497605,53.301192731595116],[6.35962249044762,53.314199761739296],[6.34916469423995,53.32708454905848],[6.342994220053571,53.33984816069278],[6.329100095850255,53.437525300908256],[6.321509896125954,53.463060156761145],[6.310003421528009,53.48770149755918],[6.294574457477125,53.51144829212156],[6.258312305783847,53.554933648935226],[6.2318829664864275,53.589557601577575],[6.222368601865345,53.603548536012504],[6.217191993312853,53.61770810209212],[6.216357468650112,53.63203679964707],[6.219869447814828,53.64653465417598],[6.227732443377448,53.66120121561837],[6.239022161446073,53.67648989569227],[6.2537428192919,53.69239965849243],[6.293495320871765,53.72607678352643],[6.3104890564890015,53.74277578395922],[6.322874181208821,53.759028223993184],[6.330644997344196,53.774835623863865],[6.3458559606038305,53.84451352058128],[6.345628958305673,53.856823393509465],[6.34223932663391,53.86893532505186],[6.335684349750262,53.88084908783255],[6.317566322369089,53.90581540454252],[6.304761819072631,53.93692708638007],[6.29679340955648,53.974198966624094],[6.291203339498467,54.04173335854521],[6.286503871991344,54.06532360727985],[6.278112283239701,54.08844205844729],[6.266022623945924,54.11108802682425],[6.235468134603014,54.15325700285228],[6.197415053313924,54.200194320274115],[6.181202828852331,54.214642929450086],[6.16041518326267,54.2300676673558],[6.105086346067097,54.26383586544357],[5.920073545136985,54.366872859519034],[5.894339641014088,54.384085300355856],[5.876970554102139,54.39851819154065],[5.838621462793554,54.44662734529607],[5.83323566339463,54.45748127820514],[5.825342540103084,54.488990164028465],[5.81955371215044,54.54404921961924],[5.818585816754644,54.56924506855389],[5.816395208624446,54.58030938600875],[5.806018962974491,54.60128976136777],[5.797830493238036,54.61120534111577],[5.75339497806722,54.65742093542109],[5.728121957179832,54.68888634376441],[5.716976720180042,54.69943457791139],[5.702828009998524,54.7094766650895],[5.685674078816007,54.719011574355676],[5.6446963335439575,54.73850558030862],[5.601082108417281,54.763762550246504],[5.539245895233918,54.80711988160344],[5.52302131091154,54.820901730504346],[5.497125370931524,54.84675070059389],[5.4798674494691015,54.86841325804715],[5.469141727915638,54.88765229190497],[5.45336043967035,54.921865413404],[5.447378265750821,54.94601153960818],[5.4466185475340945,54.958039536565856],[5.449923645733557,55.0123159197543],[5.446789974614531,55.03440207255726],[5.437889924042139,55.060035843016564],[5.4388370308406815,55.0756044972871],[5.44591019794839,55.093481292431115],[5.4591189187136875,55.113665049063286],[5.478474816309443,55.136153635192805],[5.4942891997630445,55.15756780267542],[5.50655509281493,55.17790901330435],[5.5152660675521945,55.19717841421116],[5.520416247074607,55.21537683628235],[5.531564932540627,55.22944651559615],[5.5487148305361265,55.23938580425681],[5.571864925606965,55.24519219875632]]]}},{"id":"6","type":"Feature","properties":{},"geometry":{"type":"Polygon","coordinates":[[[5.970419446509998,53.04076544983435],[5.958703060515423,53.035201820857914],[5.948827540907935,53.032844648641074],[5.9407903835957425,53.03369443027266],[5.934589927994584,53.03775156098917],[5.922804032773285,53.05300676219078],[5.898782499304616,53.07116216133227],[5.864204413843808,53.09135638819907],[5.802073427530751,53.12065040006492],[5.780919582014372,53.13220718958115],[5.760689762033463,53.14569047804661],[5.741382196577145,53.16110075016884],[5.669851401461755,53.229412357599735],[5.656520539674844,53.249213437826114],[5.649668068520459,53.2788719749749],[5.644390537800927,53.28929463944794],[5.587835262276658,53.358342122231605],[5.58045893753719,53.37080367598529],[5.575485015763566,53.38349896269374],[5.5729155772578265,53.39642825698602],[5.57383760247702,53.42358645053504],[5.579755537093264,53.45406971571934],[5.58459173717277,53.47055798429487],[5.585544280293594,53.483976570276724],[5.582609186438124,53.4943256314148],[5.57578416553172,53.501604921551674],[5.444239100871742,53.55985114334003],[5.410996768204569,53.578090249683335],[5.368649773977,53.60755917074708],[5.345907716368399,53.61906599090057],[5.290183400795581,53.635595082047374],[5.212990904283585,53.65070783812092],[5.142081993656533,53.67200013874287],[5.076695886678816,53.69559335391078],[5.066289310425925,53.70130231997405],[5.055857101552688,53.71009035855142],[5.041345330986275,53.71695515166266],[5.019982825241502,53.72189106199394],[5.003614974795015,53.72362948585917],[4.935960141099184,53.727028395491],[4.867732318350256,53.73497153361639],[4.798489141810185,53.75115343214086],[4.696492788603625,53.78445241017385],[4.659871961366505,53.79457936755968],[4.619676293689115,53.80270904323985],[4.6064811446543334,53.80244889047432],[4.600639090293427,53.79811602479963],[4.6021496024764295,53.78971151657058],[4.61100787799713,53.77723510640567],[4.622680043679763,53.75602070087681],[4.626305955187192,53.739792586623395],[4.629664132371591,53.73292123808678],[4.635571412698108,53.726669026940485],[4.664411838730597,53.710383454578746],[4.672172812899564,53.70412519293485],[4.693331449063052,53.6751535531414],[4.705770184132163,53.661104692021475],[4.748867715609068,53.6261592728384],[4.753872775327565,53.61922127904603],[4.756232295687736,53.61232191799018],[4.757585210557218,53.59857251989435],[4.7611442429508255,53.59165539845478],[4.766623725487888,53.58470980764026],[4.803594394315645,53.54983377199009],[4.81740724188689,53.53031708338365],[4.8299282308925795,53.5033814123522],[4.846574795960077,53.47795374315106],[4.879399668717052,53.447295661999206],[4.887874059504708,53.4377853099588],[4.905321590355407,53.41145001575003],[4.912039147338901,53.40471460532103],[4.919652541746959,53.399164360752906],[4.972827065224591,53.372278053761804],[4.986736723199467,53.36733126132637],[5.018012968104097,53.3617651170196],[5.050558416759713,53.360153174704216],[5.074330746820676,53.35705894172987],[5.09089929039969,53.35124047682191],[5.098247511589765,53.34590745477497],[5.104970876547411,53.338958733241974],[5.130336700390673,53.302730500768774],[5.136561537195494,53.28603110141742],[5.140288726736727,53.262871035274024],[5.144434759129242,53.24815991768947],[5.160496453170841,53.211765963496774],[5.183590889705366,53.173126459963726],[5.194064325683716,53.160899135484584],[5.203827326016336,53.15340033306415],[5.234403835949348,53.14307231566028],[5.247263986266765,53.140715967370085],[5.279723814311837,53.13822838395168],[5.314450092239288,53.137720819538934],[5.333756838816338,53.13466030059702],[5.34178861694339,53.13068054743101],[5.344868702775749,53.12517152557593],[5.35443366864284,53.11961560171966],[5.385610485340636,53.11143191300853],[5.408551268333744,53.103569595665434],[5.474280461374178,53.07636049145989],[5.503657040003554,53.06598704972253],[5.520957787307235,53.05708267293598],[5.535884951203167,53.04464812859243],[5.541072223830095,53.03648636827926],[5.544280623088732,53.02682157759606],[5.546254956824526,52.99164743958422],[5.549978364629388,52.98164606040344],[5.555934325056876,52.97297903964601],[5.570135668409004,52.9580342339828],[5.573976345932012,52.95014388846447],[5.575645168250995,52.941975215959886],[5.575143339620902,52.93352829219139],[5.5711049604782605,52.92898026241891],[5.563530000516219,52.9283307736273],[5.552416546701283,52.93157917320606],[5.537760801945741,52.93872450802785],[5.527478909784983,52.94707617633538],[5.521572600909145,52.95663528952287],[5.520044326278587,52.967402466083975],[5.5228972598557355,52.979377831054634],[5.522700532705038,52.98987275565625],[5.5194519092577385,52.9988872583771],[5.513149775565913,53.00642111393317],[5.4562565139186185,53.043453426490196],[5.437015582262381,53.05044863761042],[5.411935899592444,53.05567661142344],[5.3189253389442275,53.06332657799598],[5.3050000592264075,53.066675160408906],[5.302491133355656,53.070864905964484],[5.311401770133562,53.07589650055746],[5.3150138475838515,53.08029880640614],[5.313325593864348,53.084072327128546],[5.306335679501902,53.08721685255252],[5.279138069509333,53.09140035919488],[5.199353717581962,53.09233283375207],[5.183290742358241,53.09523083244332],[5.17056312969014,53.100017442221635],[5.161170365287526,53.106693735179675],[5.137026671813476,53.126645611553464],[5.1303247140474735,53.133271014088955],[5.125437316622005,53.14108336246023],[5.122365087329369,53.15008287000539],[5.121244768558242,53.18222230818453],[5.1174320605977215,53.20099255526453],[5.109841642434213,53.21739013560697],[5.092350914139149,53.2420927952805],[5.085008178611768,53.25555692853282],[5.084312705987584,53.26077315612199],[5.091966158487622,53.2869846103168],[5.095049561039682,53.30839714066114],[5.093602724095667,53.31522345520596],[5.089767750845556,53.32076122027701],[5.083544040130307,53.32501021449028],[5.074931421992639,53.327970067929016],[5.061431428454251,53.33034081912232],[4.9916061443843995,53.33389887097152],[4.966648337525334,53.33659651685894],[4.944892055060338,53.34140275872461],[4.926335216111068,53.348319363059815],[4.865398609727743,53.38425061023057],[4.832239342952259,53.410132444233795],[4.808444056754398,53.43392644586582],[4.800154065021589,53.44578910995873],[4.794271890455856,53.45762957741917],[4.786385432316798,53.48091347966585],[4.7810288463402895,53.49202535655333],[4.767485882336221,53.51318836239247],[4.759945887993385,53.52230975535509],[4.743977772703813,53.53670250744297],[4.726349330941642,53.54596841136754],[4.725577041814422,53.544692410543895],[4.727357158928188,53.54123430654883],[4.7732555096676395,53.45764001925562],[4.796526669587115,53.41970888853106],[4.803124566205251,53.397403850684626],[4.809434730118786,53.36275047465465],[4.822831968952489,53.32671910949715],[4.833546369662157,53.286790240875206],[4.834035155117491,53.27591284286436],[4.830624499026375,53.25193705658299],[4.826831209116549,53.241268358320525],[4.821304124800004,53.23463076168051],[4.817676202161927,53.23339892605287],[4.808475930583882,53.235684284379914],[4.778041077099689,53.25551829880575],[4.77033570153499,53.26444524725826],[4.769232268417008,53.26895606405874],[4.769817634624658,53.279842782695205],[4.762829707260225,53.32034982614954],[4.763006481046022,53.32992787308031],[4.769050604711121,53.3539721617072],[4.765958488663529,53.37247955887629],[4.752010272880672,53.39971603995114],[4.735984978720148,53.417541588549646],[4.726287459480215,53.43227014850112],[4.7137320201105055,53.45948147794116],[4.702707573740346,53.4893867924913],[4.678695402974977,53.53120476597845],[4.66919190005732,53.56082146189417],[4.662596333957366,53.59246167318983],[4.659156724845967,53.616600480471966],[4.6602859832033925,53.6377879310329],[4.658778724652942,53.64506750819585],[4.65496872915929,53.65205687788832],[4.6488549243944455,53.65875582915273],[4.6194664518735005,53.68346894304546],[4.602846988075079,53.7025699548371],[4.576839388612828,53.74181374417418],[4.5594563739397636,53.780510449926396],[4.547501055875421,53.7968252094857],[4.532791038267305,53.81074280754306],[4.512211158442348,53.82301659173274],[4.488707441077347,53.828172807571775],[4.451625603150182,53.832345424816815],[4.330994687014747,53.84003664077618],[4.288963422651097,53.841353597259335],[4.189754325241669,53.83880345098676],[4.144806798831432,53.83966976722968],[4.123899388924706,53.84444340522663],[4.114577405074757,53.84853432281607],[4.074529983304148,53.87120727130436],[4.029128301430071,53.89448459465176],[4.020242180225236,53.897420361491],[3.9570750032340367,53.909094149771384],[3.820841838554358,53.92726189693096],[3.763414585900938,53.92692569592014],[3.71318494540056,53.92237274904386],[3.659949170802709,53.91480618936768],[3.60837014486981,53.91532633026388],[3.5420110453891978,53.906658198331485],[3.4614688526975868,53.90161505379624],[3.195641664946303,53.9017386750266],[3.14988621883159,53.90366336686493],[3.1293119192787846,53.906118099424994],[3.090344042888807,53.91487605853219],[3.0542709943255173,53.92676582707266],[2.9907916236991405,53.943936316207704],[2.9633918658238705,53.9572289583822],[2.938636589706042,53.97452034920683],[2.8936753013770793,54.00966375545119],[2.868629763102951,54.02293672700498],[2.8306976353505773,54.03532909307962],[2.798608235241583,54.04071310269325],[2.769415853945252,54.047952956986066],[2.751890963047381,54.05306557233885],[2.7455448728043295,54.05762785824248],[2.7503815046168736,54.06164158971379],[2.7664039063599,54.06510542193609],[2.793614246763456,54.06801488824156],[2.817677363765923,54.06876868940533],[2.8385893460048384,54.067368712703995],[2.8563472633127143,54.0638165982509],[2.955562439160289,54.024001183260246],[3.0283895970502837,53.98840240890867],[3.054822640310414,53.97795520423206],[3.086100890109969,53.971502437850994],[3.226421850119417,53.952016607491046],[3.514886840066593,53.950697673307396],[3.6815996445815133,53.96130675495531],[3.733267458432733,53.96243244866654],[3.8707267221005037,53.96094293200618],[3.9128677350257886,53.95862822924967],[3.9322075960694245,53.95604883431299],[3.9736986554072815,53.946997076921576],[4.077208895917038,53.91894420257705],[4.11494208368117,53.907732016789915],[4.151623830822352,53.89422998683763],[4.193202333153261,53.88352801049753],[4.241668259358207,53.87731644853981],[4.28973689312354,53.874378522878864],[4.402263394273372,53.87440352400598],[4.456397817042847,53.87232875066629],[4.487725193673384,53.86865537584509],[4.524746882840388,53.86204146085424],[4.560089884907528,53.85275533385877],[4.63593970898898,53.82535271778439],[4.68408908240297,53.81297892825938],[4.812198436263911,53.78527391570058],[4.873675589619091,53.76435586760994],[4.911880814173383,53.758991893289206],[5.005031686887724,53.75584339784385],[5.0197630844131345,53.7540511735234],[5.047399346345168,53.74683366422527],[5.101504852324236,53.72605770721277],[5.149390814366485,53.71167647471258],[5.341399203466734,53.66866643482417],[5.359734836179846,53.66022100331449],[5.388967419529381,53.639050944088524],[5.422010711895502,53.62015146073956],[5.512343773857919,53.5751905519053],[5.571964879892613,53.549039501865686],[5.585200192244313,53.54216716339788],[5.606616553839455,53.52633267991506],[5.621119942130785,53.5092635944042],[5.628186911427268,53.49560924321644],[5.62882763280489,53.47290684588673],[5.621798853523609,53.40532144967998],[5.622180529124591,53.39604248731262],[5.62402637440941,53.38624339241683],[5.632106200433054,53.365084523816485],[5.646435604104026,53.34183472324131],[5.724472514288433,53.24866929144081],[5.758798502019562,53.20054798294718],[5.773432605368658,53.18597597854943],[5.791318091405681,53.17368431358804],[5.812454894853137,53.1636715334027],[5.836843984729154,53.15593590024433],[5.881704804758643,53.1368844721088],[5.902174657639247,53.12557016914886],[5.938075799554565,53.10085924875441],[5.9523947245596185,53.088955730387696],[5.973780941855242,53.06605679145101],[5.977960802714753,53.05619240090828],[5.976839319072585,53.04776201604173],[5.970419446509998,53.04076544983435]]]}},{"id":"7","type":"Feature","properties":{},"geometry":{"type":"Polygon","coordinates":[[[2.451079827043192,53.982550127967365],[2.4935695474927866,54.01104429637955],[2.5030220150452895,54.018925481706006],[2.5046015017311385,54.02256572279355],[2.498305468379799,54.02196533202614],[2.504056895704594,54.01884171088196],[2.521852039076646,54.01319311881008],[2.5935367015578747,53.994295918348996],[2.628822836272124,53.98311402424216],[2.6575452865167715,53.971474286450515],[2.6797085813605435,53.95938141157273],[2.7576439223426297,53.89950863304152],[2.776096538901624,53.88982117599118],[2.797436354949182,53.8818516580858],[2.82166435539124,53.8755985462137],[2.848782230553804,53.871060096898574],[2.8732443121081785,53.862795006407076],[2.895045647537298,53.85080488007755],[2.9141827101309117,53.83509114301186],[2.9461418509903625,53.79693113371815],[2.9867343130586623,53.74503635484245],[3.038771768604596,53.67167508667645],[3.0589638496146407,53.646070773165626],[3.072896810061723,53.631334582372425],[3.1108184898834774,53.59712945007373],[3.15755743651503,53.560612833027356],[3.17911159233954,53.545996750983235],[3.251851581483338,53.50411015585915],[3.2659394401986352,53.4939267104139],[3.29072765730885,53.471847056304995],[3.3154477994453755,53.44404230876429],[3.3393789514512875,53.41137247406665],[3.369791281791987,53.35808533664044],[3.3907733582259385,53.326128732256095],[3.4146492110316307,53.300450398015855],[3.4296006263084227,53.28845549795304],[3.467449298934641,53.264640297465284],[3.5123603043161005,53.24205683597695],[3.553780494258365,53.223723947183366],[3.6144334287861546,53.202207366175024],[3.7122661897008866,53.173939123538396],[3.765475328699215,53.15189471050428],[3.7726229700611245,53.144172553023736],[3.778544584915055,53.13291483772221],[3.794523241670652,53.072569078592636],[3.798870316096911,53.06367317526083],[3.8116896459382508,53.051001248869255],[3.888582040670324,53.00454405728077],[3.9112475739105435,52.9887838142978],[3.9375209194275285,52.97628013702592],[3.9535225001070864,52.97129029727224],[3.9886550091740354,52.96399544754433],[4.036183743229536,52.96058724309547],[4.052690161065874,52.95758183183375],[4.0705442183050105,52.951701613492034],[4.089741823893548,52.942945993674314],[4.110278363258281,52.93131433310862],[4.1251225212313765,52.91959008017377],[4.134278850480727,52.90777534229041],[4.137751958038504,52.8958714085372],[4.1355465028811205,52.88387875135574],[4.130869374050309,52.87677232173841],[4.123720166174493,52.87455184688973],[4.1140968295865665,52.87721689658282],[4.091552447754405,52.892586424974944],[4.0827678767336035,52.90067595707062],[4.070177824164716,52.91766637264892],[4.060649950395732,52.92475975911679],[4.047058099311709,52.930315034242945],[4.0294021279936985,52.934330808431824],[3.9854838625446347,52.93832230272926],[3.9160244962867696,52.9371260599082],[3.895731628373051,52.93851228799417],[3.8787711080728444,52.942643386425146],[3.865140691364608,52.9495207858284],[3.8431341750074206,52.968966226351164],[3.799583530460458,52.99959821481069],[3.785347935122005,53.01199231115243],[3.772800140476682,53.026375891766094],[3.7619401219342445,53.04274947716397],[3.7527683223920647,53.06111351219051],[3.735306127175374,53.089881290643895],[3.7190314892247196,53.10803585631528],[3.6989596590369627,53.12095382729085],[3.642135977747724,53.14417512629035],[3.5858590370123147,53.175168666223826],[3.5482654634896384,53.19366131177611],[3.4902098089084537,53.217646681157504],[3.4471460535768195,53.233107460760515],[3.425668306942738,53.24324631911326],[3.404677567348758,53.2558471532893],[3.384170656652362,53.27091021164857],[3.3460398311458888,53.30516170854606],[3.3032854372349103,53.35055070525278],[3.294065187903207,53.36516004339817],[3.287949582105486,53.38004718293954],[3.284941751256984,53.39521259502051],[3.2850449530279633,53.410656508151426],[3.2822591740625016,53.42367622699078],[3.276582232316954,53.43427156807657],[3.268012931135084,53.442442133672266],[3.2429397459003875,53.45565177245776],[3.1525677411942485,53.508854046478085],[3.120703535255211,53.52304729884581],[3.107270650390899,53.525062078031794],[3.0957467037035094,53.52278389110411],[3.0861348838832923,53.51621328392345],[3.050080402483801,53.46046424116182],[3.0308940105618736,53.43630376281197],[2.9586391138873624,53.36780311924948],[2.9505211419002264,53.35821890025031],[2.938598696597013,53.33776403169015],[2.9312277586210813,53.3155945722623],[2.915365966351685,53.2459414479674],[2.9084737292510643,53.23578300619649],[2.894908223635757,53.227334514020875],[2.8896794389988743,53.22189558631755],[2.8868382115165248,53.21502865894063],[2.8863836780206205,53.20673389718954],[2.898411639858069,53.15669252940973],[2.899646565591762,53.137244596597924],[2.9135712534442573,53.10123067986823],[2.920733302004788,53.089339991664986],[2.9307285247118253,53.077905532185234],[2.9435549890434727,53.06692658959463],[2.9592109436111325,53.0564022503119],[2.9709503067337026,53.04493239259246],[2.9787754272271787,53.03251816995131],[2.982689164515289,53.01916034877614],[2.9840990893369264,52.92597364169865],[2.981694236999016,52.905653400075124],[2.976330442795682,52.88798645081597],[2.9680103320402207,52.87297241730222],[2.9567354437267515,52.860610698662114],[2.9301760019731407,52.836613414673984],[2.898276146605152,52.81358128001016],[2.8815274295798536,52.8044596482613],[2.8646445240391434,52.797612012298295],[2.8476248525484165,52.793038320149684],[2.7885057326890696,52.78684982644844],[2.7124927172735025,52.783031280414654],[2.6332850424055927,52.78273123682314],[2.49586125100652,52.76939050453195],[2.4187301052025716,52.77118295792598],[2.372881033232063,52.77824341163511],[2.3534601406356694,52.78371689436506],[2.3195090028047565,52.797828891069344],[2.286442509430129,52.814224807117355],[2.224440615000763,52.84959044041228],[2.2014651923542545,52.86574218226019],[2.1702281243015196,52.892701381640926],[2.160073599154483,52.90421441512888],[2.1297582633656686,52.95333704338488],[2.120946375087353,52.97915811428848],[2.1105154274291547,52.99095083869629],[2.0944167612072233,53.00141247562306],[2.0755385899667713,53.008417992302846],[2.02075450437888,53.019420774643685],[2.0042579242162173,53.025147462446],[1.9991949155277036,53.02868036880804],[1.9675768924172903,53.06130380934508],[1.951107065002556,53.074746247122334],[1.9385816986755138,53.081928979122836],[1.92210754022788,53.08535629596741],[1.8234974188741664,53.086567543481884],[1.792734869492389,53.09083600432663],[1.7847845998724545,53.09475957743633],[1.7771173812433907,53.105407344656605],[1.76274326494073,53.117701303472295],[1.7530388754044512,53.12446487341096],[1.7412588314306425,53.1289174572012],[1.7274044072528028,53.13105845157605],[1.711477542087785,53.1308871467692],[1.6380594830390143,53.12148878571771],[1.5782284569101155,53.1190729967421],[1.5630803729649223,53.116396383441995],[1.549896243235519,53.11124704244413],[1.5386776030654377,53.10362563082075],[1.52023139644938,53.08528402451159],[1.5110946891807597,53.07887961319159],[1.4322124535106384,53.04667844022392],[1.4163107467612044,53.042058986722495],[1.4033924027286502,53.041163521324854],[1.393453879049284,53.04399299046861],[1.386493158572912,53.05054812068626],[1.3861465226816942,53.056614560825686],[1.3924167742360578,53.06219239156473],[1.4053062912705805,53.06728058569021],[1.454164396513796,53.080067585622025],[1.4876148328359449,53.09480773788536],[1.4978755656126423,53.09667226826737],[1.5095604629815698,53.10598306217949],[1.5304391078149737,53.12762496540153],[1.542216854598952,53.137219610355565],[1.5541800955184886,53.14404675058049],[1.5663266379107939,53.148106324766594],[1.612614262109791,53.15122897095016],[1.6820318854031981,53.15287560883795],[1.741102571250764,53.158663315037444],[1.7566054720437705,53.15739601888077],[1.769597348048964,53.1523823704317],[1.7800756506931437,53.14362316769519],[1.7880391332974623,53.13111905090438],[1.7971063781675831,53.12148588638715],[1.8072784926871404,53.11472344143633],[1.818557015619048,53.11083145064388],[1.8440047151513728,53.11022320171009],[1.8577407346583332,53.11207199383184],[1.8872444145195013,53.12007427475119],[1.9028687306316432,53.1226505451899],[1.919024158738073,53.1230843577232],[1.9357083089975986,53.12137548478455],[1.967294781545763,53.11278677654625],[1.9788367974146894,53.107165769917074],[1.9875450604823055,53.10066149346567],[2.004482060752435,53.07720695439623],[2.0146252569048193,53.05941451346014],[2.021423201671518,53.05274890891208],[2.030062646401281,53.04852920316699],[2.040544533281688,53.046755004313326],[2.065455653802015,53.04709631974321],[2.09140056642472,53.0434359091202],[2.1176776475358543,53.03490982390468],[2.1301568405203777,53.027851009085],[2.1421945516859027,53.01892851600488],[2.1639648229040205,52.9969162642289],[2.17272135361973,52.98525027863061],[2.1928360697881786,52.94863358608693],[2.200622949398001,52.93724494531341],[2.259310214668876,52.86897740835535],[2.283480115686693,52.85081950772738],[2.3478606244385976,52.81114572398406],[2.3687538409074866,52.80267762033891],[2.4114690860042693,52.79857567431385],[2.4562786007371353,52.78885629325968],[2.4742655748094364,52.789207209642214],[2.5380305885850634,52.79613961525882],[2.5926693718633724,52.80560850618948],[2.6829455970943648,52.826291458944844],[2.7092347832853867,52.82920441535205],[2.7750015568597517,52.830973363768585],[2.790161355329805,52.83295242848894],[2.8240903889225866,52.84178839258499],[2.893845816734146,52.86951453549811],[2.901753056613575,52.878383424049034],[2.9084440210125804,52.89188512882735],[2.9139197121506903,52.91001982412142],[2.91818035485494,52.93278763551275],[2.919561054224803,52.9517480792021],[2.918057673209783,52.96690129061591],[2.9136675862518886,52.97824718850706],[2.900687013212995,52.99386987306954],[2.896560234360489,53.0025006089194],[2.888704503038746,53.046281434324975],[2.8808212965759097,53.0651510440122],[2.8658182053173618,53.08000801342614],[2.8386735332160185,53.09885146138556],[2.830805382125757,53.105847949398516],[2.825548496756194,53.112990773749196],[2.822904120652911,53.120280280946204],[2.819856601122976,53.166896128507354],[2.8211845468379524,53.190923232405325],[2.8251968388682744,53.19965256213791],[2.8323045805383575,53.209101167959055],[2.866511031317768,53.239747543656684],[2.880055664013693,53.255063455061986],[2.8829015729873175,53.26078646592089],[2.8836011314671692,53.266650331550416],[2.882153465219743,53.27265508882695],[2.8728127475706424,53.285086845529825],[2.868732406993018,53.29280463085273],[2.8663171245217125,53.30195418015518],[2.8677698588083738,53.372599112262144],[2.8703688800707607,53.38289808360536],[2.8756057089531493,53.39148374122622],[2.8834813096137157,53.39835574602039],[2.9054667276709956,53.410387257752824],[2.9312838326218977,53.42928098056836],[3.0227899107836325,53.507376240706435],[3.0307123033188224,53.51638336394269],[3.035038285862041,53.52524805885904],[3.035765562396658,53.53397071690658],[3.0304971285997726,53.55084589496237],[3.024031204085393,53.58144873552258],[3.0161071457806763,53.596321699799205],[3.003368234606473,53.61090834226285],[2.985810035622705,53.62434915370015],[2.9463288034734827,53.65036311509154],[2.9005109889670035,53.68751241554922],[2.8937435424675386,53.69637223704803],[2.8898629929308424,53.70609231539356],[2.8888710975787224,53.71667292784923],[2.8909822452653686,53.73926779677102],[2.886341697990818,53.760712391555074],[2.87494121635345,53.780433968484914],[2.8567785404652475,53.79671471886238],[2.7962108994366788,53.83523474965571],[2.781909433680235,53.842645128234984],[2.76591650413565,53.848906585093154],[2.710923724641569,53.863228765338334],[2.679365986248279,53.87759063977338],[2.579931546957656,53.94763488947129],[2.5470187430380142,53.96510294869964],[2.5189894887359707,53.977434043810334],[2.4997512212737623,53.980298070442764],[2.475902213773977,53.97979006226642],[2.4474484302057267,53.975907288679174],[2.414398068810517,53.968646493897985],[2.3821983187739626,53.95960487238941],[2.3830373053465275,53.95783310549571],[2.3951661049150306,53.957894775794806],[2.4105454928280166,53.962035710173424],[2.429180941376458,53.9702546655131],[2.451079827043192,53.982550127967365]]]}},{"id":"8","type":"Feature","properties":{},"geometry":{"type":"Polygon","coordinates":[[[1.3369960076626808,52.36416516454123],[1.4053338226826027,52.384623641313745],[1.518736310028029,52.411145029346635],[1.5300241309132696,52.415595715504644],[1.5526835093609133,52.43026829122429],[1.573043254068032,52.438322097284555],[1.5983646728015968,52.44122706092935],[1.62903899338617,52.43898457634776],[1.7101289448243058,52.42330868070338],[1.8129199874824378,52.41430242187915],[1.8357628108171087,52.410382552506796],[1.8513711433701654,52.40329827539419],[1.9056841155963982,52.37356472976683],[1.927447382891011,52.35815193100644],[1.9748242003831367,52.319541650434665],[1.9984601326276588,52.30705937299732],[2.068370001161651,52.28177356588845],[2.1448092327147252,52.257307131190416],[2.171012616178967,52.25196466448996],[2.196609433060889,52.25051534581261],[2.2061312984420165,52.25147421397745],[2.2124525627330183,52.25363071539382],[2.2155732638013412,52.2569853630683],[2.2136582011862043,52.2678686798764],[2.2100681185014595,52.27597609063761],[2.16655015827014,52.34861508628073],[2.1578539569354698,52.366035690496226],[2.1439045274332007,52.40049330798063],[2.106505266809303,52.43558741445967],[2.095969831009796,52.44981826233845],[2.0868633174255122,52.471865126228714],[2.070124333722614,52.533206136377764],[2.056729415077485,52.55472884815319],[2.05095914038977,52.56866817289755],[2.0486414236590837,52.577105871753325],[2.050216336860042,52.584517765023335],[2.055685748529491,52.59090370989301],[2.0650509866506233,52.596263176140596],[2.0783128371270263,52.6005952458933],[2.0905898850448215,52.60101538652268],[2.101878819038676,52.59752389062926],[2.1121768443197615,52.5901210217341],[2.1214816855380256,52.578807013894945],[2.1275699444641205,52.56795647265604],[2.130444193935652,52.55756990762261],[2.1301068031502575,52.54764756546129],[2.1265599380750477,52.538189430426506],[2.1260740812110543,52.52907905308184],[2.1286473230009073,52.52031646443802],[2.134277903464475,52.51190145891184],[2.167433760836204,52.47815139201934],[2.1813320878796767,52.46117303140857],[2.1962486784571578,52.438833384837906],[2.2209638624766956,52.4180203921357],[2.2354955773529013,52.400551904941715],[2.239783767741685,52.39082212811206],[2.243471585375174,52.369460702724204],[2.243477252403783,52.34579882640444],[2.240155145656541,52.30723521736003],[2.2402330882385346,52.302682182538405],[2.244789586727713,52.29214068481366],[2.2679365444136224,52.26358280535111],[2.2817823687521375,52.243258111796536],[2.292146679331437,52.23291254429257],[2.3058108289905817,52.22291077046507],[2.3430312273585967,52.2039337237071],[2.359598641732377,52.19304739233353],[2.3724761020766714,52.180594193257406],[2.3816653230827405,52.166575329634384],[2.387168796007564,52.15099165963255],[2.3895149658010455,52.13409036112162],[2.3887071949747685,52.11587162173106],[2.3847493979306207,52.09633537689013],[2.356850928514959,52.01649676399259],[2.3506642997025606,52.00686745984279],[2.342351263188018,51.99868966063423],[2.331912185445564,51.991962923351444],[2.319347020635965,51.98668668733739],[2.298198296425071,51.974690240979996],[2.282356920889503,51.96077078774113],[2.2686622809509833,51.94491087180095],[2.2491117551113504,51.91795280069684],[2.213485464300331,51.8796629369552],[2.178778030627551,51.837464954138525],[2.179282965440308,51.824132016075396],[2.192602160014669,51.81316468744383],[2.2187284415536435,51.80455859797569],[2.3134166790245474,51.788560340290374],[2.366547283198892,51.77747382173212],[2.440608639037768,51.76744062216877],[2.4878835007810673,51.759361468875305],[2.514172644631998,51.751829012025915],[2.5362762964330656,51.74281048471552],[2.5615583250876317,51.72924578763897],[2.5678516573100207,51.72845589913081],[2.5730619726199397,51.73140245791785],[2.5771903436844883,51.73808560481835],[2.587884483210726,51.77195249065276],[2.5899344934064024,51.777164087646476],[2.5940943084135863,51.78108184089856],[2.6087437682082584,51.78503481722558],[2.637831109753802,51.78756757946976],[2.653259583905477,51.79330640851004],[2.664726023374795,51.80326054422249],[2.6719662265925375,51.81775566089314],[2.6779553985742974,51.824277682440446],[2.6868427251968185,51.82950604999817],[2.6986284541906262,51.83344011053831],[2.713312334592478,51.83607899517116],[2.7794301771624226,51.844028078141854],[2.8686854908817723,51.850666990013394],[2.881304897843823,51.84531342858145],[2.8939381254983316,51.83280254830786],[2.9031384120559673,51.82695559039707],[2.9152206988375324,51.822411109668415],[2.9480324777460707,51.81722582618323],[3.0188840784073,51.81528415607029],[3.147472915548207,51.81844593993583],[3.1805550160762177,51.82262835068592],[3.191592937972552,51.82618888578079],[3.1989620727971766,51.83073046359122],[3.204503893958043,51.83722639963347],[3.208218335675994,51.84567694578893],[3.212324647672581,51.881286717981894],[3.2229705219748195,51.90842696777247],[3.239939439254439,51.93474025511848],[3.2568762091865064,51.95194362993376],[3.2653292986020883,51.95712913626685],[3.2787832442474274,51.96181440198535],[3.3206977944922755,51.96967671625294],[3.373405214267012,51.975213535702935],[3.420827737779428,51.97749312297974],[3.4400757525947165,51.97986226648332],[3.454091246664615,51.98550121301512],[3.4676325380667588,51.99585672178544],[3.488169386087356,52.01886719780269],[3.495155469736951,52.03087280695229],[3.4979546194698936,52.04549785326291],[3.4933641486639546,52.107642011883904],[3.4967846809196605,52.130233129840846],[3.5054796691195143,52.151337926702716],[3.5194557094335805,52.170955234351176],[3.56788370113207,52.21447893661983],[3.656057538242707,52.287041192404594],[3.7151582456678724,52.334184801466634],[3.7737426261649514,52.37495980707398],[3.831783900371427,52.409367262436774],[3.8892556473004967,52.43740823179152],[3.94613185547639,52.45908378851282],[4.016637738091096,52.48029050868258],[4.100790379333347,52.501003948198495],[4.19860577252046,52.52119492067341],[4.310098697480412,52.540829485826535],[4.488165276984184,52.56913637434143],[4.554667134551513,52.57787697271053],[4.650035726732109,52.58666947622955],[4.686430325731078,52.58875882538493],[4.736616470845078,52.58835864807696],[4.804720837261459,52.58213579295243],[4.906726491152785,52.57012799068931],[4.955473608044542,52.5678689773145],[4.997747187852711,52.57009059324798],[5.033559398174289,52.57679964687961],[5.093831720958645,52.59786835266446],[5.126297292653019,52.60639779474083],[5.1958766751700205,52.61944062177202],[5.233153111421067,52.621996424323],[5.272134221177432,52.621254872613996],[5.312811083568917,52.61721438430407],[5.424063369795962,52.59937432410233],[5.471871053651879,52.59448199267536],[5.494060201977044,52.59482982247225],[5.5171710211865035,52.597268420804674],[5.566171751639722,52.60841555044515],[5.589322035212661,52.611327264125336],[5.610651596895594,52.610533493695414],[5.630155173284239,52.6060352913222],[5.664260099723137,52.59128378066351],[5.679452499595176,52.586386295221],[5.706127814434342,52.58155012503918],[5.724361171281496,52.58275840563997],[5.74811171569417,52.58676384277637],[5.812190291133846,52.60315173443044],[5.842200544307852,52.60861622490997],[5.867405992961263,52.609960302511375],[5.887799198412013,52.60718714804144],[5.90337545899151,52.600299313366456],[5.934252674508465,52.582620048909256],[5.949551061564079,52.57182871849929],[5.964754294508656,52.55973632113246],[5.976752526911059,52.54772256299901],[5.985548488666176,52.535788379532846],[5.991144861440876,52.52393444600039],[5.99354427815965,52.51216117808534],[6.000199588152999,52.50418410885994],[6.011110088311157,52.500002541786735],[6.026277296818955,52.49961528128646],[6.045704952022471,52.503020631494586],[6.074670371102494,52.505524455965656],[6.113173103024464,52.50711974769582],[6.339721873982422,52.506142699294976],[6.350431976924013,52.50323660075877],[6.358016436799574,52.49781531652874],[6.362475177297254,52.489879444955044],[6.363809201522753,52.47942931584652],[6.355431038543649,52.47088223386512],[6.3373451119478625,52.46423606403867],[6.309553237327705,52.45948631948128],[6.234921436622336,52.455045619780414],[6.161738218099555,52.455724969108154],[6.000138639092707,52.46807174887864],[5.976160171860142,52.47193145193678],[5.956785836130464,52.476972553136996],[5.942015757616569,52.48319731423332],[5.9318507841096375,52.49060744725845],[5.918728958914947,52.5057352703635],[5.915774527311735,52.51345372538451],[5.913324508107235,52.52880520804217],[5.905459395312473,52.54298836369657],[5.899494676981577,52.54964153387738],[5.892856276684932,52.55419614777495],[5.885544906274858,52.55665208566978],[5.877561482064715,52.557009211801294],[5.810005933796232,52.543993070013876],[5.771775695803003,52.53855106746575],[5.731544661503708,52.53509497827379],[5.713943872894075,52.53517478233314],[5.69910640355883,52.536815576041114],[5.687031025924995,52.5400184151422],[5.6449068552894355,52.55820979358975],[5.607103700323992,52.56880835719644],[5.466573125154731,52.57149558612619],[5.374407505198784,52.570290183176404],[5.353126720755693,52.57169112285128],[5.296198041390744,52.58061645278031],[5.264581479958946,52.58366528284071],[5.221291186942196,52.58302173076138],[5.173774990688657,52.577885947512044],[5.142750370313813,52.571295248751696],[5.064203564389842,52.547156130604584],[4.977106310944433,52.53254178847789],[4.911163914737158,52.52484265080626],[4.89068783723404,52.52614744813932],[4.856517605303436,52.53156766803185],[4.758110460548313,52.55161112831538],[4.7241190239748025,52.555689122058475],[4.683366218241581,52.557576782148146],[4.641348587247208,52.55426367174021],[4.572941746319505,52.543970864069735],[4.4947305155787785,52.53457605384429],[4.445118549870636,52.526247592047554],[4.380689495638979,52.512380199082656],[4.2132452890522725,52.47193245048837],[4.086493514590312,52.450722188590134],[4.037799670733185,52.44010094965663],[3.97407539735818,52.422428976824165],[3.9231695337700487,52.404948625218275],[3.8928815070385543,52.392984372324904],[3.8679113612346785,52.38032295409662],[3.8307486296439177,52.35424469609291],[3.7768385332893137,52.30907619249304],[3.751625736216364,52.2929766855679],[3.715785242844272,52.274334670547695],[3.6764088744409,52.24773337872073],[3.5839077509206785,52.16447395294746],[3.576595523353619,52.15117435785904],[3.5705301464649706,52.13168834593684],[3.5575900367610367,52.047670244932256],[3.552054530055107,52.02655415246669],[3.545535545393375,52.01080917201436],[3.513353073545701,51.96216387586573],[3.5051081975914458,51.95471837441636],[3.4939891115174713,51.94891072517421],[3.4799957039840668,51.94474011882369],[3.426257166388843,51.93909211651451],[3.3509879406270215,51.93722633223384],[3.3272830631524806,51.9338793103964],[3.31857568531572,51.93032525447909],[3.3116997717210004,51.925139380895374],[3.306655440749079,51.91832200599698],[3.292260136276779,51.88859654261681],[3.2662627209593342,51.847999426702145],[3.2413398718404234,51.80332820183975],[3.228160806302966,51.79099409097097],[3.2208015846366407,51.787755394627524],[3.207678205366828,51.785339746081796],[3.164139154340371,51.78296902763593],[3.0015642299156964,51.78308358754585],[2.944922734613306,51.785022344014884],[2.9228921514391293,51.786961606049154],[2.8887865193288063,51.7927892282238],[2.860959491182988,51.801216736183946],[2.8365282170172272,51.81094351370392],[2.806848861940079,51.81805452141787],[2.7900419232867493,51.82062790187369],[2.761172471680119,51.82089809567962],[2.7386388175353393,51.81466998881123],[2.721643034360585,51.80487277726329],[2.69245005862069,51.776989038016694],[2.635878063983564,51.73698096458812],[2.620867561204944,51.71513979525271],[2.613841380552403,51.71007507550622],[2.60391894151827,51.707114524745734],[2.5910994365460502,51.706257410565605],[2.5431274809427027,51.71291157046827],[2.509776529456814,51.722210307201856],[2.477749608536798,51.729065873125776],[2.3673574080694517,51.738281896859256],[2.319400248079725,51.739477731033936],[2.306008580617642,51.741513752264865],[2.2949405375863217,51.745676546153646],[2.2861951879000952,51.751966761221155],[2.279772252633265,51.76038490819314],[2.2639293320815645,51.767605607569884],[2.2386632199657353,51.773625042001406],[2.203972239157197,51.7784371324862],[2.1598562601877798,51.78203353860494],[2.126964214348016,51.78797426742811],[2.105295275619511,51.796268729875976],[2.094852141132418,51.806923135541844],[2.0956410574679234,51.819940493218546],[2.0990324174948425,51.83411626347915],[2.10502892448017,51.84945022563522],[2.124850229590601,51.883590981229624],[2.1379405213192406,51.8999514630573],[2.152905509839352,51.91502282222176],[2.1697458190299588,51.92880435668187],[2.2037839203083385,51.952784440969666],[2.215708700981102,51.963273178916744],[2.2360598434255783,51.98959124836088],[2.2542303777613903,52.00580852190259],[2.2656964466321043,52.01368699168892],[2.2750446815398795,52.02236448096756],[2.2822743437645348,52.03184148783775],[2.287384468117543,52.04211839504511],[2.298671015873304,52.07926630424276],[2.3148727256211226,52.124410420805965],[2.3215985602641416,52.151283277166414],[2.316990012135708,52.15873764729705],[2.306811410102233,52.16713500975542],[2.291058970604586,52.17647390487614],[2.2507938509976855,52.19557797975509],[2.2083995721502747,52.21335304496563],[2.1754331262484756,52.22077089393471],[2.1297834477285558,52.2261351716784],[2.1053248781355123,52.23083119818656],[2.080814175771711,52.237798579123975],[2.056247546531108,52.24703725630263],[1.906103697202863,52.31892525389989],[1.8733626079888845,52.33325421694691],[1.8433317227343522,52.344673376207744],[1.8160190472652555,52.35318486655207],[1.7914315176724813,52.35879063017478],[1.7665994229431796,52.36341296118737],[1.7162079055371815,52.369706760301206],[1.6458942336788942,52.37526463568493],[1.6096097420200357,52.37988492573987],[1.5763607053778697,52.38079014299111],[1.5443442595594967,52.37649691123485],[1.5055712068763565,52.36788120700819],[1.4347766001549886,52.34874934833392],[1.382823110869112,52.33146051180551],[1.3689584736009437,52.32948085301241],[1.3558971295702884,52.3309261602956],[1.3436361161362225,52.33579667287497],[1.3321728230252554,52.34409261007992],[1.3272427718520423,52.35158561880971],[1.328849536767779,52.35827655030286],[1.3369960076626808,52.36416516454123]]]}},{"id":"9","type":"Feature","properties":{},"geometry":{"type":"Polygon","coordinates":[[[0.8908012758133912,51.935929886908355],[0.9597746944398856,51.94690532767565],[0.9619082204144729,51.94629166389392],[0.9536105791037279,51.943545160629164],[0.9825539190311577,51.943719549122086],[1.118694509012155,51.95459505596397],[1.1591689349172127,51.95621089415504],[1.2221459276984399,51.95473912026083],[1.2499354617972307,51.95092663064594],[1.2770184944740195,51.944820159549295],[1.3559452270803196,51.91683482590344],[1.3840802121110756,51.909742667271566],[1.4440802162190909,51.90095505374527],[1.4697495250637158,51.896086949179214],[1.4904646127899466,51.889848629173414],[1.5062255841631116,51.882242707069246],[1.517033459623687,51.873271176627725],[1.5310381460549716,51.85474241096872],[1.5482265973802904,51.826655082561004],[1.5685816498088363,51.78900753453073],[1.5920820840331344,51.74179778663456],[1.6098092891249738,51.70199694474429],[1.6217874969907777,51.6696079381726],[1.6280351530069428,51.64463277581993],[1.628564979018605,51.627072555623165],[1.631385866410263,51.61149085051989],[1.6364958719625986,51.597887496223244],[1.6438936498958934,51.58626219705487],[1.6535784497167336,51.57661452605652],[1.6688992515416554,51.57044584134117],[1.6898573421017573,51.567753954306326],[1.7164565842895654,51.56853587466046],[1.7487034151265255,51.57278780704696],[1.7733444654029693,51.57857811085336],[1.7903792438243005,51.58591157094135],[1.799805741465528,51.594791481870786],[1.8042622153093666,51.61402969275704],[1.8077313367116221,51.62122156948206],[1.8171515293676483,51.6307505288128],[1.826743516923367,51.633774457130926],[1.8593330804926587,51.637023262742495],[1.9008918081383177,51.63709433942717],[1.9299682533898297,51.63443525276427],[1.9354101771637209,51.63643649234577],[1.941038163092465,51.64169210603765],[1.9599553186858285,51.67178820258278],[1.9681469760430947,51.6796674730639],[1.9774319311745536,51.68560392468495],[2.031972474531671,51.704770213688455],[2.0477569675569547,51.71351936260336],[2.052101829590636,51.718596465025584],[2.063011510842508,51.741860694723414],[2.0785834877030562,51.76841327681353],[2.0892658850998047,51.77817373767997],[2.1020115171884366,51.78331368409718],[2.1168172091826234,51.783832442457864],[2.157471534001821,51.7763240240179],[2.1644065214075163,51.77702408586228],[2.1694618248482134,51.78015009312584],[2.126937167064679,51.748614702603504],[2.1189658258613506,51.74082969021402],[2.110096541517922,51.72555573436963],[2.1091961508650106,51.71806731387429],[2.104236264256053,51.704042241950354],[2.095067089605789,51.69128572483627],[2.0883686173405938,51.68602930868551],[2.0702082542497338,51.678405304364674],[2.0350975974053904,51.668607368117826],[2.0104889865685553,51.65758665737702],[2.0012232222890654,51.65083971790164],[1.9951146855811743,51.64330585748808],[1.9921621113580554,51.634985559020244],[1.992363910992479,51.625879048727555],[1.9886256453379194,51.61771453349354],[1.9809492153996489,51.61049165117354],[1.9693360367229444,51.60420964037004],[1.9358729926311993,51.59431479075004],[1.9155936876681698,51.59055090789296],[1.8679372831964742,51.58538408760831],[1.8492502042780796,51.58097344744221],[1.8368882787380665,51.57434556536315],[1.8308505025778659,51.56550242654764],[1.8302196081896807,51.52906222473826],[1.8293269494638298,51.52319784879733],[1.825836524767823,51.516982180295685],[1.819749476817302,51.51041499351455],[1.7903497926326803,51.488645251461044],[1.7827436411625173,51.48075916946417],[1.773032286526714,51.46406723334823],[1.7727297441248835,51.45593134204329],[1.7760618603510592,51.448158751658866],[1.7830268716431972,51.44074914199878],[1.7936231941340846,51.43370185637222],[1.8049202388500831,51.429588551773605],[1.8169200048578469,51.42840904420788],[1.829624751193306,51.4301631337648],[1.8909993321322967,51.45304339262827],[1.9361628538986715,51.45882943714635],[1.9475305411253472,51.4626730329886],[1.9525957460622398,51.468899169200085],[1.9513566602914945,51.47750864498262],[1.9438095114588259,51.48850122855921],[1.941246699058584,51.49791190525584],[1.9436715786395076,51.50574102852139],[1.951086479641098,51.51198830833212],[1.9774909904818534,51.520191324327605],[1.99308068925744,51.5226032785013],[2.029030521028336,51.52404489075561],[2.0586789952128033,51.52770217460518],[2.0695593683191826,51.53120460293161],[2.121174354336023,51.559252777759355],[2.1429462246342452,51.56705823829141],[2.1606815284743415,51.56767436146382],[2.168041545665921,51.56479912075575],[2.1743981994960078,51.559639304031165],[2.1797508645723624,51.552195065605055],[2.1840992142150255,51.542466532801654],[2.192829563368646,51.53553306901639],[2.2059415442466745,51.531393704149764],[2.2234363972243276,51.53004697989269],[2.2453169690193837,51.53149094862073],[2.2624711743435117,51.53501562998523],[2.274900239715251,51.540623098428235],[2.282604103003451,51.5483148496676],[2.2939116086129374,51.576195924799606],[2.3054114575227675,51.59236644308565],[2.3126142371969753,51.59956522546151],[2.330190033448667,51.61202781934663],[2.3820798037809685,51.63833539276959],[2.408374308385056,51.646440323390266],[2.4242856541307765,51.6492843316572],[2.492185996398158,51.65610325220853],[2.508618468964362,51.65991391915767],[2.527849282189694,51.67154036244982],[2.5441515574217943,51.68917001170582],[2.5548336504085256,51.69392755960627],[2.571031079001002,51.69691534889597],[2.5927430521975277,51.698131099630864],[2.6448231071279853,51.698625361831645],[2.6874373303955825,51.70557733622773],[2.7051993856246708,51.71147827445864],[2.72007484120248,51.719158710490056],[2.732063975325664,51.728619734297176],[2.7411663872343217,51.739862220385845],[2.747380995336038,51.75288682799462],[2.756231718420678,51.76380227644228],[2.76771923447734,51.77260798306525],[2.7818434832173278,51.779303184593246],[2.8137984470758006,51.78732736612064],[2.8394860131997737,51.79078061957891],[2.8945610991224835,51.79084290393167],[2.9021691835288688,51.78971102071369],[2.905845512137758,51.787437102796346],[2.9055903988172385,51.78402151778591],[2.901404753167687,51.779464238572004],[2.8906708005987465,51.7727866118515],[2.876785729487217,51.76935748994461],[2.8133887000740363,51.75951567729735],[2.8029224863770983,51.75559528174369],[2.795082848725905,51.75070272890669],[2.786234513564428,51.737838526567735],[2.7841776148079056,51.7297028261805],[2.784794868920093,51.710024613541556],[2.7832684078180976,51.70075134975515],[2.7791201575807722,51.69261163112209],[2.772351220565032,51.68560518600541],[2.762962306134298,51.67973156634986],[2.751214431585079,51.67515334068531],[2.737107308672034,51.671869803766334],[2.701812152971999,51.66918325594058],[2.623849935021968,51.67123644588653],[2.5896010348013987,51.669332724962544],[2.575244473644951,51.66619150033176],[2.5531035996788103,51.65700141197934],[2.5463505387146568,51.6524215483639],[2.54247455599324,51.64785253470078],[2.541474779258148,51.64329465371649],[2.537077307385436,51.638723415600204],[2.5292831714109316,51.63413844122278],[2.5035090707625516,51.624924294442906],[2.474315477931991,51.61861677892857],[2.402812516088303,51.61209439679689],[2.3892554173135268,51.61007292521129],[2.377811312687528,51.60643465974195],[2.368480905937512,51.60118021766186],[2.3612644492236563,51.594310099433564],[2.3561617436701146,51.58582468852628],[2.352111927403757,51.57685692067552],[2.347168909321475,51.557474705518985],[2.345143642437474,51.51680181390515],[2.342348887498715,51.51174412013702],[2.3366762161300083,51.50748335173435],[2.3281261425970263,51.5040190947459],[2.316698881845643,51.50135072209344],[2.283648800351219,51.49838851775396],[2.2370006411467265,51.49858228481606],[2.2002136483337793,51.50110223578393],[2.1811074787517213,51.50568721223417],[2.1523887917450018,51.522398662712206],[2.1487633955851235,51.52107122428409],[2.1459749862346604,51.5168220941055],[2.138584708549552,51.49399719210065],[2.1326234655216125,51.492326763025666],[2.1058349274034094,51.489848489665526],[2.0110498460191946,51.487461011320434],[2.007833027175226,51.479626593681246],[2.0067004176431147,51.4718097477586],[2.00483941138528,51.43763709206509],[2.001534870859022,51.43403064142234],[1.9848037675795045,51.4257543048958],[1.9550970759050976,51.41638467077848],[1.9139619554569722,51.40690210496391],[1.8137978205155059,51.38820162257591],[1.7866075522374967,51.38418211927111],[1.7748915581855877,51.38487348881976],[1.765959543934576,51.38835820242025],[1.7598104899195395,51.39463688511066],[1.7564443876886113,51.40370996637396],[1.7502343031426808,51.41210202534655],[1.7411789647300366,51.419812604002196],[1.7292773571386633,51.42684103841363],[1.700858258803912,51.43807808195031],[1.6767582333440199,51.44350147740733],[1.5853394805386343,51.45381989726433],[1.5624784360041544,51.46053607687098],[1.542896484643239,51.47037911460323],[1.526591649650219,51.48335062363718],[1.513563287399114,51.49945194715543],[1.4869392766197884,51.524323371347414],[1.4733476769266762,51.53309340752325],[1.459572471927284,51.53941961238852],[1.425036720499036,51.55002174718259],[1.404276157385224,51.55429562423697],[1.3046322281122604,51.567537344434214],[1.2887014338854035,51.56779404818839],[1.2593548687539544,51.56394647955305],[1.21839749207957,51.55015611303188],[1.1604529283566754,51.52486233481836],[1.0556438769366985,51.46932905756186],[0.9987627211631879,51.44787556894475],[0.979107522605434,51.44493559858595],[0.9603214693485005,51.44591151223975],[0.9423997740973733,51.45080367240523],[0.92533806308089,51.45961241763365],[0.920292519467565,51.46749382999352],[0.9272696332304587,51.474449538192864],[0.9462745425068525,51.480477454466765],[1.00312574254329,51.49105700026618],[1.0237173855107395,51.49693657984448],[1.0390843912230454,51.50321324536586],[1.0492249470424597,51.509889031904585],[1.0575032181268902,51.5175090773005],[1.0639187626201534,51.52607376821334],[1.0684709079496122,51.53558339973466],[1.0781234708442546,51.56648551922697],[1.0872090599310362,51.586316287106015],[1.0970256407504675,51.59509703572794],[1.11185300694946,51.60281901705631],[1.1316927383388498,51.60948035100495],[1.156545726504009,51.61507850732073],[1.2056407893974894,51.62234573143064],[1.2298785367833485,51.624015020067496],[1.2769157141786804,51.62406427475401],[1.3398147616959728,51.61911504509318],[1.3718631927585823,51.61435892523969],[1.4123913069837437,51.605967990092076],[1.5082598177491418,51.597954239429995],[1.5482599354226154,51.596666623900354],[1.56311474207883,51.59766269484961],[1.5745406353593827,51.59975386448404],[1.5798051939017743,51.60681178691043],[1.5789072128402155,51.61883726507498],[1.5718414340128346,51.63583008807512],[1.466471929901377,51.814719808526206],[1.4470930439486354,51.84406775769991],[1.4335346828361744,51.856411977173835],[1.4163779022737253,51.8662665158019],[1.395623253236282,51.873629815835656],[1.3712724818508344,51.878499997102764],[1.2903069933049718,51.89296571055266],[1.2318854762827094,51.901210771659386],[1.1768077917106738,51.90427387778107],[1.0900284545748047,51.90436106205481],[0.9267524590877844,51.909567406476775],[0.8806621185244516,51.916553868164044],[0.864677384686425,51.92081934492008],[0.861036408351926,51.92547036261734],[0.8697428887528507,51.93050810792886],[0.8908012758133912,51.935929886908355]]]}},{"id":"10","type":"Feature","properties":{},"geometry":{"type":"Polygon","coordinates":[[[3.5792217051970328,52.0070704380032],[3.6122603851157447,52.01422184608532],[3.633610338892973,52.014271587477474],[3.6702157690608,51.99455297853056],[3.678867257107418,51.99173865387231],[3.6878184282796473,51.99136145400572],[3.6970707318339273,51.99342130574602],[3.715668631201787,52.003230462812674],[3.7397277978760695,52.02406162686936],[3.7570431701742413,52.034685467180516],[3.766848821293161,52.03754946420134],[3.7882268967784882,52.03854683172768],[3.810554754780208,52.0336789660383],[3.8343626233660437,52.0235920730707],[3.923799120122512,51.9755975764716],[3.944172842759976,51.9676294030432],[3.9983466051447243,51.98832546687425],[4.024839861226769,51.99492869093875],[4.037235206084565,51.995470734415136],[4.048252985694163,51.99342153681417],[4.057891491484595,51.98878149154698],[4.086311517955285,51.96575334687478],[4.096589579392837,51.966145994122435],[4.119762587182257,51.97682474501007],[4.131626258214827,51.98777080780006],[4.140886303549779,51.99971675953874],[4.146271193182857,52.00421836705119],[4.158549669766967,52.010278517603524],[4.185554383622234,52.01488899404765],[4.222490357137114,52.01613786086857],[4.2327317897214725,52.014730012402225],[4.237403171352047,52.01207879463531],[4.259623838645026,51.986796611746215],[4.263791542038128,51.98512554958121],[4.275424311033933,51.98662654958917],[4.2946378811293116,51.9951995303808],[4.317690134453279,52.00860575340681],[4.32407086033206,52.01048589534844],[4.34309935376468,52.01222215636125],[4.366514483103614,52.01081434245394],[4.382410821249715,52.0049363646924],[4.418417685506233,51.976858859480636],[4.428282191418478,51.97234823056937],[4.438738826254567,51.96994390466672],[4.44978895637014,51.96964571601047],[4.477651551289935,51.97613042389306],[4.4822234871372775,51.979000568024695],[4.501576824529388,52.00640497909566],[4.510977585797792,52.0116520222527],[4.524249996926427,52.01440861426059],[4.541392523689103,52.014673461827726],[4.594124434804365,52.00762838035426],[4.604837627103238,52.005043191745884],[4.625615699725908,51.99662587821616],[4.636854584349044,52.001349614900946],[4.649825765008722,52.01011421395858],[4.669609936757564,52.031792795443124],[4.6782994811978424,52.03850049176312],[4.6890394175221735,52.04355170538941],[4.7018292223161,52.04694588417353],[4.7293733339690815,52.04979773800825],[4.754684057409989,52.049423487029706],[4.767076255697153,52.042569673067476],[4.779180666248335,52.028562304895104],[4.788459938700651,52.023216991220586],[4.801002972223184,52.02042346724266],[4.816811261232179,52.02018067907156],[4.835887417383679,52.02248728677124],[4.8534584496401285,52.02660367063279],[4.869526102612409,52.03253048416941],[4.907701181294033,52.05582821017296],[4.915722399994849,52.058300479508546],[4.921217792009303,52.05723508338871],[4.939219758519194,52.028150637344055],[4.950716309050735,52.019665473250555],[4.982748432583288,52.01669074198102],[5.10539716797582,52.012447351717604],[5.106183500385747,52.00674027969638],[5.102482439553719,51.99525773398087],[5.10275003045099,51.98972259114686],[5.105695452261287,51.985115525873155],[5.144323402841965,51.96652577375168],[5.206515103227273,51.929916156704365],[5.247538190981907,51.90311359498179],[5.25903872157145,51.9069599062895],[5.294597302127816,51.92351415384435],[5.330099487770989,51.933389652646404],[5.371790012665552,51.940527310649486],[5.391366121603509,51.942408431199674],[5.427972201543334,51.942797473411005],[5.455733868616544,51.940269337730896],[5.51323988724099,51.92376404937627],[5.552513556268735,51.915760911802224],[5.5719181209749955,51.91468756148506],[5.626349344532888,51.91885309929617],[5.639390494678633,51.916934461668426],[5.649397212458493,51.912642627050325],[5.664728409433837,51.90058365324156],[5.674476114931602,51.89645816549225],[5.698137828145099,51.89201344258316],[5.73437023358243,51.891176558422],[5.757400532587669,51.893729697581364],[5.802428681158667,51.90323947494827],[5.831416581184799,51.90417194782102],[5.8481817462545,51.90311638686461],[5.875915151702039,51.89674753983156],[5.886881667111905,51.89143564402297],[5.895914187890068,51.88470619108904],[5.9071378324849615,51.87938601222386],[5.920552833409681,51.87547447883628],[5.936159833884027,51.87297083240592],[6.0661820211796025,51.86412000661562],[6.07879108577067,51.860211228163266],[6.092152141506819,51.848146723385675],[6.100536603921671,51.83637470829204],[6.10277817733378,51.83078401378239],[6.103362573388011,51.820193583539414],[6.1062835783877825,51.81686254771861],[6.1124826314943475,51.815396954236775],[6.151839706392782,51.81890318876449],[6.173325701953357,51.81832484655879],[6.229378621206315,51.81289278042575],[6.253484244317,51.80864831980579],[6.271490520930088,51.80359268426249],[6.283398669088704,51.797728658047546],[6.312322143261665,51.762749389343995],[6.322359050123902,51.75660857598898],[6.336674403724053,51.75164697980288],[6.355267826027364,51.74786304306269],[6.435977472696867,51.740647493166726],[6.452827479475639,51.73478375783987],[6.460261695553708,51.72919549593069],[6.467034544393278,51.72183648677959],[6.4696113418297685,51.714438468951386],[6.467994151933047,51.70700168104952],[6.462185037181475,51.69952591154926],[6.45218605866215,51.692010499392445],[6.448022682379845,51.68546188273679],[6.449692122172367,51.679880736701094],[6.45719230209146,51.67526685220612],[6.470521854849817,51.671619136758956],[6.521460023071666,51.66033855374598],[6.530852226357719,51.656639281458204],[6.5372583662313195,51.65156491358792],[6.540678908471962,51.64511592860828],[6.541092329270101,51.63029660150408],[6.53967257111253,51.618786855488096],[6.532438423963644,51.59297094943597],[6.536078389037484,51.58602726506849],[6.544852274805855,51.57795203215001],[6.558756666874192,51.56874415859293],[6.592447395211757,51.54900406715167],[6.602740448670305,51.540552252771164],[6.608669622102503,51.533047544884965],[6.612299529906776,51.519592871839194],[6.621448516220965,51.496855342301416],[6.624161233174987,51.48505571586068],[6.626043616617815,51.46937645409454],[6.627320167281058,51.42637902305027],[6.623828944530885,51.40858797614705],[6.6166252673874695,51.39644407311554],[6.605709163202493,51.38994665077491],[6.591078001751308,51.38909473297055],[6.580536259258316,51.39397381832209],[6.5740814305076745,51.40458505199888],[6.571714164061704,51.42092907699712],[6.573364057718725,51.46204619741154],[6.5714891085445455,51.47804962890598],[6.5678117387303185,51.49101629211379],[6.56233100900855,51.500946048978044],[6.554170596125561,51.509980542406346],[6.543329333841728,51.51811923693941],[6.529806365000278,51.525361406510875],[6.461509734029093,51.55343260358145],[6.454747439787277,51.560628674461135],[6.45233577490271,51.57013692935897],[6.454277180747556,51.581957583869176],[6.468677018540862,51.61667785658008],[6.470774446658445,51.627029241812316],[6.466364255917812,51.63090199960462],[6.457245019990753,51.634750774184866],[6.409037365675717,51.64738864316321],[6.395903909548656,51.65362702394252],[6.385474211628274,51.6610875446889],[6.377748824081743,51.66977091412702],[6.374660995716659,51.6775069206576],[6.376213288299636,51.68429588749819],[6.382407661144038,51.69013759741936],[6.398489209415234,51.698621785857526],[6.3981371184931355,51.700909862789544],[6.3666538247283295,51.703606992102934],[6.331332691325965,51.714702470249186],[6.283378000951408,51.73606588937092],[6.278109611020126,51.739304421719986],[6.272361124909878,51.746786293296395],[6.258472689410312,51.75774801254736],[6.239965478812804,51.766557741689056],[6.1568037318015705,51.78102474189772],[6.122577119794347,51.790562402801754],[6.07550026168587,51.81197813494065],[6.053355062303328,51.82605903574089],[6.045406485981202,51.83277290685381],[6.029896046647036,51.84033216455593],[6.022336228065121,51.84117757582045],[5.961283274950632,51.831343641973426],[5.93152275645112,51.829974849904346],[5.918751012706228,51.83143153949452],[5.8283138255139795,51.85479140838654],[5.7956241250497005,51.86142987322292],[5.787753266845976,51.86161677710671],[5.778582482969535,51.85776687448156],[5.750486130993519,51.853709873042746],[5.729342420643115,51.85159980194429],[5.70807484277949,51.85176629063623],[5.6866801714910045,51.854209316957785],[5.665155154621505,51.85892885461432],[5.600018066579657,51.87746818623792],[5.538869377936136,51.88840195772516],[5.517166397762714,51.89049518719827],[5.456502751176722,51.88689778541022],[5.437351769054273,51.887621566078245],[5.419075143307951,51.8899509273937],[5.385137957240574,51.89942808349644],[5.370802405061013,51.901832564543604],[5.358667777859531,51.901100507449854],[5.348736531429415,51.897232562630904],[5.341010216635359,51.89022926406462],[5.327347665072526,51.885295080498146],[5.307748857661144,51.88242794687309],[5.282212124591019,51.88162491650163],[5.223798730029703,51.885671796864116],[5.201404059084419,51.88999697060705],[5.183549243757604,51.89586028282757],[5.142756360710525,51.91710567096397],[5.054403346398448,51.95804472395763],[4.991985676456508,51.975383153595075],[4.9481372197015325,51.98457494509172],[4.935788996714388,51.99144742432102],[4.923743658568811,52.00547037077652],[4.917638260821582,52.01061219195467],[4.911413675676534,52.012990523203825],[4.90507102302222,52.01260533767369],[4.8594813159658585,51.993815776116804],[4.835347122418843,51.98996548102929],[4.822985649999451,51.99048281348673],[4.797134013432003,51.99624767763273],[4.7831077966750835,52.00134040812205],[4.752846431222276,52.0159452113647],[4.740352003046046,52.0200340685185],[4.730866695733248,52.02017384015175],[4.724393059881797,52.016365231029376],[4.71614302437746,52.00054617214878],[4.693815904698273,51.974520346297545],[4.682780220517048,51.96817263963829],[4.66947597389166,51.96445848154743],[4.653901355052826,51.96337712274805],[4.6206087096603445,51.9674183734761],[4.607565642795102,51.97085013681203],[4.588684783566959,51.98053993510071],[4.579052457577261,51.98375978593144],[4.568028371350099,51.98488297989392],[4.55561395332793,51.9839091157077],[4.53062592815838,51.977242812143544],[4.522058436475886,51.97312508493835],[4.507100497812636,51.959004681933436],[4.499086589398636,51.95552879346297],[4.488732817490866,51.95289520506663],[4.462851704385605,51.9502920381542],[4.434993285610281,51.95161078718191],[4.406992131262884,51.95682809979672],[4.384368275115768,51.96587905707382],[4.375071962840275,51.97184315159532],[4.365957334037855,51.975202101011476],[4.35702600534789,51.97595594051373],[4.348279538495923,51.97410470190678],[4.308221959860445,51.95503948170849],[4.29792145769841,51.953852349684055],[4.284782716261287,51.95464703301385],[4.2345694825829785,51.966569176681496],[4.21397657911237,51.974264766614844],[4.208798622891877,51.9775708447596],[4.2011891899962635,51.97862455262815],[4.178680483346227,51.97397279560845],[4.138817735384835,51.95972747561711],[4.120272353629047,51.95502619541311],[4.087089079556292,51.95436142099962],[4.018848294512392,51.96310364059583],[4.006213422871522,51.96321228932188],[3.9945881969939103,51.961359401126494],[3.9839740213831685,51.95754526609547],[3.9743720381839203,51.95177014810133],[3.9637583433535273,51.94779155504576],[3.939491523854021,51.9452228561513],[3.9140374549111403,51.94883861521128],[3.904096585649943,51.95184284389031],[3.880146046637588,51.965360545057706],[3.830725142344697,51.98377215934975],[3.813686199336842,51.98828227023464],[3.7881802243438347,51.99089524595559],[3.765937554363252,51.98421132053778],[3.7491934140581256,51.97521146026587],[3.710377711128166,51.9686213290416],[3.6566111814377784,51.965030163804336],[3.549701466173018,51.96362614631471],[3.518076594533694,51.96084211860762],[3.514673054553683,51.96248338162633],[3.516304890435503,51.967029982264606],[3.5229739523929604,51.974481699396975],[3.5346840464047165,51.984837655546905],[3.547962344668151,51.99372145593835],[3.5628084623352745,52.001132578346336],[3.5792217051970328,52.0070704380032]]]}},{"id":"11","type":"Feature","properties":{},"geometry":{"type":"Polygon","coordinates":[[[3.5511453929473236,51.95256027671507],[3.548042585019501,51.95712851683225],[3.5541387514236447,51.960515302448485],[3.5694354778947703,51.962719202082575],[3.627629589137833,51.96356185264527],[3.662857479041435,51.96011612478607],[3.699608502390854,51.95339809728024],[3.7378739557032534,51.94340636573219],[3.777644486872079,51.930139473375796],[3.8445052699752478,51.904144690725765],[3.917119787054784,51.867657952517675],[4.006960525609191,51.831955447548914],[4.0583059909436985,51.80499387582206],[4.086227793702668,51.78782431453708],[4.110475002865933,51.77133334735277],[4.147965855779905,51.740395836027666],[4.174990962092787,51.71166556317898],[4.219420032099634,51.6697375265137],[4.245304102161971,51.640676952756436],[4.264833113572675,51.609727237456305],[4.272208660445464,51.59321974642474],[4.277990369820799,51.57591583317416],[4.28477857631168,51.53891954607167],[4.292039245140888,51.518996071400515],[4.303955202110389,51.49804446238583],[4.320519245042705,51.4760633406988],[4.341723551992919,51.453050781705706],[4.354486250041765,51.43566240575182],[4.358821593700139,51.42390091226551],[4.354737608242284,51.417767209852016],[4.342236111109327,51.417260421973744],[4.328519490820758,51.41969390830351],[4.313584913344698,51.42506725878983],[4.280048245461246,51.444631710869174],[4.264400250730934,51.462368291925685],[4.250480599691811,51.486590434517595],[4.238286296231824,51.51729869719105],[4.227815848176401,51.554493530053854],[4.212834550099703,51.5896193746532],[4.193333875478578,51.62267459426236],[4.169306500358787,51.65365701731724],[4.112649482525108,51.710483374870584],[4.031165306253809,51.78832014744174],[4.004063225077402,51.80790919716166],[3.9765591802356104,51.822128026018525],[3.94866252532419,51.83097634687461],[3.8931843264770025,51.83970539770674],[3.8670638808038156,51.846731718476654],[3.7660953609973284,51.885327338512646],[3.5966947038422172,51.93379788595377],[3.5602902650849364,51.94715018068652],[3.5511453929473236,51.95256027671507]]]}},{"id":"12","type":"Feature","properties":{},"geometry":{"type":"Polygon","coordinates":[[[4.090676467614091,51.92863115072681],[4.33941232797893,51.888655328684386],[4.477663275698167,51.87236202368689],[4.59331437379821,51.865972983193714],[4.78561634436471,51.85898193062026],[4.8389553816137045,51.859298626842545],[4.97894521192595,51.86467133611046],[5.038043367978735,51.86431272622237],[5.063965921538852,51.86239671722437],[5.108511800916672,51.8542867477764],[5.219760691563806,51.819706446965455],[5.244978826573004,51.814835579651444],[5.2695436938685924,51.81273719938543],[5.293459911496853,51.81341166179018],[5.410027376971786,51.83385317646458],[5.434314634547597,51.836280826453226],[5.459529517604082,51.836406676787476],[5.485668154585595,51.83423018134479],[5.5127264017204824,51.82975077622884],[5.537562676535599,51.82319832382241],[5.560174607670285,51.814574258785704],[5.620095204179575,51.77974229668378],[5.644688300527816,51.7697559639004],[5.672498384201481,51.761155338977154],[5.762589447688272,51.74247752118023],[5.839984493716199,51.731358405467255],[5.8575473269019325,51.72735325156531],[5.870368298038399,51.72297339181592],[5.878448530896452,51.718220362569234],[5.897242865907304,51.70083860783136],[5.94587142133097,51.643337694225806],[5.9764336839010035,51.61490879087232],[5.993851251644791,51.60161282019641],[6.012876862456878,51.589086309917754],[6.055750696885484,51.566338508397386],[6.095842132726352,51.549342459386686],[6.1443363767126895,51.53357153818588],[6.156407729821668,51.527064493395336],[6.166314240328902,51.51947576720051],[6.174056332263721,51.51080589849018],[6.180087242114326,51.50006681257282],[6.184407433993931,51.487258757308936],[6.18701784580126,51.47238189573594],[6.192881949750134,51.407141013689355],[6.188320433480114,51.40140798411992],[6.177755026723317,51.39909196058179],[6.161184181297395,51.400191345766856],[6.138603657100666,51.40470365818013],[6.120416972873615,51.41267398218713],[6.106622467516148,51.424104384607084],[6.097220480522278,51.43899639811857],[6.0922133575113255,51.45735102214093],[6.084360580267308,51.472200931500744],[6.073661008702693,51.4835455928793],[6.060114839228743,51.49138423826141],[6.043723607305286,51.49571586548241],[6.009787746910573,51.510746883174775],[5.992238073590028,51.52144600844248],[5.95790902469846,51.54704667391999],[5.929797511705743,51.572481659653995],[5.918076737786971,51.58513840835475],[5.866344386507656,51.64693420936225],[5.843865315946365,51.667979677445445],[5.822851305279514,51.68345406124025],[5.813725734760942,51.68822834537058],[5.794695628591545,51.69372615923203],[5.746459274785626,51.70120917071498],[5.701518590966781,51.71152467587094],[5.5461421705054645,51.76119644569124],[5.48645770350727,51.78183294579412],[5.4547975125982235,51.78802948540689],[5.4218537611901585,51.79001442722505],[5.3907280685952985,51.78674768567688],[5.335935821360672,51.77711346799583],[5.2824762967167045,51.77263333057547],[5.257034396133451,51.77247410359431],[5.234570384218795,51.77420477058949],[5.215081843425388,51.777827067027175],[5.096200889042514,51.81546810296159],[5.064579818272024,51.82416074059396],[5.044996517061833,51.82645493090572],[4.9937600495133685,51.8253830383245],[4.847688052033933,51.80955177781828],[4.786246177980231,51.808549504022345],[4.717161482025479,51.813482528817396],[4.460672357653226,51.842647055929014],[4.267541540397349,51.85659739987084],[4.224111382719843,51.8629125368835],[4.115961940756961,51.88740859958214],[4.081110085728844,51.89179999873447],[4.04722701461801,51.89291961896548],[4.010553225027893,51.898607395313476],[3.9906946235593654,51.904143357366365],[3.952602317899279,51.91811952439519],[3.9291633891063786,51.92936629642354],[3.9229439435416573,51.93396909060433],[3.9233138204782043,51.93917060494815],[3.9302753231011756,51.9449707645642],[3.943831268638031,51.95136838436716],[3.963984987030807,51.958361167688366],[3.9809079452775666,51.96179943692254],[3.9945953950674205,51.96168461652455],[4.005044130954313,51.95801785170191],[4.012252492572558,51.950800006991564],[4.0289305346662285,51.94349932122921],[4.055073495669122,51.93611179549807],[4.090676467614091,51.92863115072681]]]}},{"id":"13","type":"Feature","properties":{},"geometry":{"type":"Polygon","coordinates":[[[1.550322124987547,53.000909131262326],[1.5435477426054915,53.00285002808797],[1.540197209599773,53.006278119841134],[1.5402709820382792,53.01119369675553],[1.5559191085325295,53.034223438196044],[1.559436361184688,53.04380626773175],[1.5631571125031274,53.0761576546265],[1.5666648157728786,53.086173705829154],[1.5718759354034453,53.0955596225312],[1.5851827669364797,53.11082363798459],[1.591048913538112,53.115085050380515],[1.5963887449565723,53.11709950232863],[1.6012013565375265,53.116867060899715],[1.601807738379336,53.109285536316385],[1.5982097271010558,53.09435497814899],[1.5784290155537397,53.042444745335104],[1.5677571915342758,53.0207067749064],[1.5583903094928069,53.00686146443048],[1.550322124987547,53.000909131262326]]]}},{"id":"14","type":"Feature","properties":{},"geometry":{"type":"Polygon","coordinates":[[[1.4639559168563705,53.030903018581235],[1.4865513528078345,53.06010256400337],[1.4923453569289253,53.06595808461704],[1.4988411803278798,53.06893119602893],[1.496024762622019,53.06022270620819],[1.4762988651478903,53.031061796097966],[1.465701642404071,53.02225254703821],[1.461867727730894,53.022203019261006],[1.4612856460550103,53.02508649393663],[1.4639559168563705,53.030903018581235]]]}}]}