{"type":"FeatureCollection","features":[{"id":"0","type":"Feature","properties":{},"geometry":{"type":"Polygon","coordinates":[[[1.3994623432290647,54.63613150446282],[1.4259444420291847,54.62757462829358],[1.4352366367252425,54.62241862298571],[1.4354453588827083,54.616979976507146],[1.4401592814728061,54.61258879657998],[1.438556541350564,54.60992990469159],[1.4427077898958234,54.60536647907778],[1.435137913878545,54.595375470398444],[1.4277393009896482,54.59577425362006],[1.4199959385280994,54.605072150387734],[1.4144866293469174,54.60796813273309],[1.4035754148007171,54.618212806459255],[1.40365290894224,54.623490308683905],[1.3981075535641012,54.62720953574961],[1.3994623432290647,54.63613150446282]]]}},{"id":"1","type":"Feature","properties":{},"geometry":{"type":"Polygon","coordinates":[[[1.475177962869692,54.61232752946677],[1.4773383242222882,54.62156386141703],[1.4864500434801537,54.62361687488692],[1.505191494183036,54.625061433062804],[1.5090374104889555,54.622685409838994],[1.5077222535627617,54.61297542190196],[1.4979109555922803,54.60728014012032],[1.4832786673687812,54.60782472358549],[1.475177962869692,54.61232752946677]]]}},{"id":"2","type":"Feature","properties":{},"geometry":{"type":"Polygon","coordinates":[[[1.5530833564673687,54.67605031254288],[1.5578762492406795,54.68240831146359],[1.5604275785061206,54.681226949303685],[1.5605304397500142,54.67832008642957],[1.5585089267832744,54.67635732759146],[1.5552250234017255,54.67462182629953],[1.5530833564673687,54.67605031254288]]]}},{"id":"3","type":"Feature","properties":{},"geometry":{"type":"Polygon","coordinates":[[[1.600351575066617,54.62457673266374],[1.606545758230043,54.624501111510185],[1.604107352396634,54.62275025325639],[1.600351575066617,54.62457673266374]]]}},{"id":"4","type":"Feature","properties":{},"geometry":{"type":"Polygon","coordinates":[[[1.5881263015847875,54.5966412666651],[1.5898609058778015,54.59569166065875],[1.5899253720864472,54.593825951237385],[1.587639033685347,54.59432995370211],[1.5881263015847875,54.5966412666651]]]}},{"id":"5","type":"Feature","properties":{},"geometry":{"type":"Polygon","coordinates":[[[1.611094853119794,54.54681948935959],[1.6207167610014435,54.54301602439355],[1.6175036018218931,54.53595499508325],[1.6148379935322126,54.53823249825546],[1.611094853119794,54.54681948935959]]]}},{"id":"6","type":"Feature","properties":{},"geometry":{"type":"Polygon","coordinates":[[[1.8402553856855395,54.54994051782316],[1.8428027069670687,54.54929111863937],[1.8438968257221844,54.54786211405928],[1.8391609423152244,54.54766362736065],[1.8402553856855395,54.54994051782316]]]}},{"id":"7","type":"Feature","properties":{},"geometry":{"type":"Polygon","coordinates":[[[1.8807578929261235,54.54079707499081],[1.8941384420999448,54.542696494064884],[1.9031934132936503,54.544861552593396],[1.901474320379094,54.54218142644191],[1.895695709701701,54.53964804201956],[1.8851746593492291,54.53915338590371],[1.8807578929261235,54.54079707499081]]]}},{"id":"8","type":"Feature","properties":{},"geometry":{"type":"Polygon","coordinates":[[[1.9328575006736284,54.499182787687445],[1.9359107302409675,54.498089347673215],[1.9362105785320347,54.4971316859586],[1.9329492103075163,54.49566249445613],[1.9328575006736284,54.499182787687445]]]}},{"id":"9","type":"Feature","properties":{},"geometry":{"type":"Polygon","coordinates":[[[1.9672499371225922,54.476594333269375],[1.9724866595027217,54.47599876309616],[1.9736378162177382,54.4739278931249],[1.9673265258969241,54.473554035250594],[1.9672499371225922,54.476594333269375]]]}},{"id":"10","type":"Feature","properties":{},"geometry":{"type":"Polygon","coordinates":[[[1.9387401255971382,54.47378656821327],[1.9451005799346461,54.472241742492336],[1.9456953248582118,54.470486375547964],[1.9424563552624008,54.468217368511816],[1.9387401255971382,54.47378656821327]]]}},{"id":"11","type":"Feature","properties":{},"geometry":{"type":"Polygon","coordinates":[[[1.94497212311347,54.445192016571795],[1.9518443086938522,54.44493172539036],[1.9540815603494492,54.44335060131538],[1.9527455649250485,54.441898567946886],[1.9483283519466323,54.442820507324484],[1.94497212311347,54.445192016571795]]]}},{"id":"12","type":"Feature","properties":{},"geometry":{"type":"Polygon","coordinates":[[[1.9852904826284545,54.39486997555261],[1.991810681186383,54.39598937997276],[1.9970139572677792,54.39390313012784],[1.9910074494871004,54.393727820404195],[1.9852904826284545,54.39486997555261]]]}},{"id":"13","type":"Feature","properties":{},"geometry":{"type":"Polygon","coordinates":[[[2.0015478754551648,54.397260341736626],[2.0108002773603624,54.39639696919513],[2.0052589815731783,54.39472294864356],[2.0018066126821905,54.39544607561481],[2.0015478754551648,54.397260341736626]]]}},{"id":"14","type":"Feature","properties":{},"geometry":{"type":"Polygon","coordinates":[[[3.200129346091236,53.809469289625085],[3.193412734362418,53.82337204065848],[3.166370759978831,53.84594798857438],[3.1590985424002156,53.85552765068644],[3.1783933267470963,53.849635159375566],[3.1815057830209996,53.84499993946604],[3.217442177688395,53.828887580343526],[3.227768106024672,53.808493874106496],[3.2271864555364553,53.79738155861777],[3.2292469257085816,53.79274704042789],[3.2479398808198776,53.7797441536968],[3.2520060108553457,53.76244803542953],[3.2426049321906603,53.758454219518065],[3.237925125127333,53.76000714080549],[3.228081945701093,53.77021363705115],[3.2174282288049576,53.775790166579775],[3.220352839908534,53.78689828478439],[3.21854673687635,53.79045171760427],[3.200129346091236,53.809469289625085]]]}},{"id":"15","type":"Feature","properties":{},"geometry":{"type":"Polygon","coordinates":[[[2.939253074199076,53.98748376535026],[2.9434412927403657,53.98913218674827],[3.022003327081878,53.966299953552145],[3.0359587437718516,53.95971105015815],[3.0492092601922316,53.95085702593747],[3.081251475165621,53.92182196683941],[3.0934383394074083,53.91461011555108],[3.0902929882502805,53.91090812436546],[3.0812342966986104,53.91297259251907],[3.0770619210918038,53.91873773458559],[3.0519717908562374,53.927806388156746],[3.031059827744612,53.941807949617846],[3.0268783213926747,53.948600313700894],[3.0254825530894,53.948189020771046],[3.0261750220773997,53.93975112518686],[3.0205945390227744,53.9405754068468],[3.018853075070177,53.94633805679149],[3.0129224466132736,53.94633884111143],[3.0143153518926415,53.93892992850849],[3.00699164584445,53.9453103395175],[2.9884998327667343,53.954982521178735],[2.97313753698988,53.969385933698696],[2.954628569407004,53.97781807607671],[2.939253074199076,53.98748376535026]]]}},{"id":"16","type":"Feature","properties":{},"geometry":{"type":"Polygon","coordinates":[[[3.9701324595354466,54.472515830245605],[3.9735115614031966,54.47308224555922],[3.974474711229576,54.471721663367035],[3.970572425844606,54.47107665187849],[3.9701324595354466,54.472515830245605]]]}},{"id":"17","type":"Feature","properties":{},"geometry":{"type":"Polygon","coordinates":[[[3.8860948416304018,54.60951271188135],[3.901895150892788,54.60994819765605],[3.906916545933992,54.61046284384563],[3.8955148842704697,54.60819184972999],[3.8860948416304018,54.60951271188135]]]}},{"id":"18","type":"Feature","properties":{},"geometry":{"type":"Polygon","coordinates":[[[3.8574281064914886,54.48559374038761],[3.8595905357474662,54.486204170458144],[3.8593314273503805,54.48289302298586],[3.8630383785521047,54.48179909515595],[3.8594692706172706,54.47740720072337],[3.8574281064914886,54.48559374038761]]]}},{"id":"19","type":"Feature","properties":{},"geometry":{"type":"Polygon","coordinates":[[[3.8547042013197887,54.497466151819204],[3.8597945881620785,54.50044855480093],[3.867484637252288,54.499215676804894],[3.870651764620168,54.496468901780446],[3.86832244213837,54.489509973668774],[3.865842832586932,54.488865160133884],[3.8635413193853982,54.49066695405117],[3.8625575104660825,54.49799935562595],[3.855345478368982,54.49637569504872],[3.8547042013197887,54.497466151819204]]]}},{"id":"20","type":"Feature","properties":{},"geometry":{"type":"Polygon","coordinates":[[[3.8742335883236967,54.50872870493985],[3.8764642867650565,54.50950399154586],[3.8767309546162094,54.50349267590562],[3.8729262538234153,54.50526872178623],[3.8742335883236967,54.50872870493985]]]}},{"id":"21","type":"Feature","properties":{},"geometry":{"type":"Polygon","coordinates":[[[3.84537339283089,54.516589402462884],[3.8490016443627892,54.51268044783388],[3.8468693029348553,54.51243772391571],[3.848355022211237,54.50933520276221],[3.8455504521907073,54.50525043990437],[3.84537339283089,54.516589402462884]]]}},{"id":"22","type":"Feature","properties":{},"geometry":{"type":"Polygon","coordinates":[[[4.126998076458996,54.412266181975546],[4.1364900535837394,54.41335983880227],[4.142396582484633,54.411884991058784],[4.1359756894969255,54.409422668674466],[4.128702840408657,54.410358099397335],[4.126998076458996,54.412266181975546]]]}},{"id":"23","type":"Feature","properties":{},"geometry":{"type":"Polygon","coordinates":[[[4.1573408400507565,54.4145809627111],[4.159427980442415,54.4166896340703],[4.1672507485667145,54.41606240409223],[4.166390658004824,54.4143362242482],[4.161625172550706,54.41312070592996],[4.1573408400507565,54.4145809627111]]]}},{"id":"24","type":"Feature","properties":{},"geometry":{"type":"Polygon","coordinates":[[[4.1009573654110225,54.4140043247467],[4.1011537665609055,54.416288889461725],[4.103916012591167,54.418471190138966],[4.109869182488827,54.41865315418515],[4.1009573654110225,54.4140043247467]]]}},{"id":"25","type":"Feature","properties":{},"geometry":{"type":"Polygon","coordinates":[[[3.4186252467836775,54.24858685475472],[3.4198912457752555,54.25067817730263],[3.427220317121024,54.25220144238025],[3.4292384226861414,54.25173868156107],[3.433377561779909,54.24580116718626],[3.4310438822046017,54.2458095341599],[3.4296181127243326,54.24335442136051],[3.4262265761896433,54.24637337425555],[3.4218424212156675,54.24365523821113],[3.4209479544127523,54.247485344501435],[3.4186252467836775,54.24858685475472]]]}},{"id":"26","type":"Feature","properties":{},"geometry":{"type":"Polygon","coordinates":[[[3.34738061102001,54.474718871853234],[3.3521914991900643,54.48063612854475],[3.3528987752191193,54.47276880715526],[3.3594961411187727,54.46772075173892],[3.3512174268784225,54.470323867430615],[3.34738061102001,54.474718871853234]]]}},{"id":"27","type":"Feature","properties":{},"geometry":{"type":"Polygon","coordinates":[[[3.2169882867183173,54.52307196994832],[3.2070362401992156,54.52829481200519],[3.209587921580671,54.52804575559578],[3.2190265355645264,54.52451939650051],[3.225464247445328,54.524136355975],[3.2284752012328495,54.52308456360489],[3.228289489285944,54.5209926290366],[3.2208111887519197,54.52195141587177],[3.216976478833634,54.52084472028544],[3.2169882867183173,54.52307196994832]]]}},{"id":"28","type":"Feature","properties":{},"geometry":{"type":"Polygon","coordinates":[[[4.3192347866031096,54.479315178958004],[4.3253133594989075,54.47893068172026],[4.32593222537265,54.47728497798914],[4.3221826776524965,54.47563821504967],[4.319251082114608,54.477211319436186],[4.3192347866031096,54.479315178958004]]]}},{"id":"29","type":"Feature","properties":{},"geometry":{"type":"Polygon","coordinates":[[[3.499814952904455,54.11138098168048],[3.510692780716361,54.10795837378548],[3.515805988861455,54.10320884223418],[3.515743142324891,54.09814368621659],[3.509956539096301,54.09479139487215],[3.49963631770813,54.09652316192239],[3.491657247400656,54.10195914103926],[3.490559910033534,54.106353646508445],[3.4934932228726243,54.11140706764457],[3.499814952904455,54.11138098168048]]]}},{"id":"30","type":"Feature","properties":{},"geometry":{"type":"Polygon","coordinates":[[[3.828943413729802,55.599696772505844],[3.8659827088132954,55.572206205613995],[4.018670734169206,55.576953166470446],[4.030031802170316,55.53186092999317],[3.9364080521932805,55.54563769063127],[3.911103759412089,55.535171291500795],[3.8400988715239404,55.534494579387996],[3.828943413729802,55.599696772505844]]]}}]}