{"type":"FeatureCollection","features":[{"id":"0","type":"Feature","properties":{},"geometry":{"type":"Polygon","coordinates":[[[0.30310131561418047,51.471952659892935],[0.322218055300437,51.46942940529955],[0.3405705536156638,51.46984750284153],[0.3581588105598609,51.4732069525189],[0.3721123264114106,51.47796374527457],[0.3824311011703131,51.48411788110855],[0.3919921856536924,51.493215901514006],[0.40079557986154857,51.50525780649092],[0.417475897831147,51.514509514791726],[0.44203313956248774,51.52097102641642],[0.46379557943546007,51.52440616278108],[0.482763217450064,51.524814923885714],[0.5589549306466242,51.52050148087187],[0.5874061586437733,51.52109036422093],[0.6098538084513692,51.52303256267457],[0.6262978800694119,51.5263280762328],[0.646452462706706,51.526733397848886],[0.698256535790836,51.523318104928194],[0.8211201837120309,51.52270212130987],[0.9207258461216584,51.52451355365945],[1.0648472234301476,51.540302934957424],[1.145460803624342,51.54308579569987],[1.1845299970329417,51.54591850934079],[1.2560495622607386,51.554038166519575],[1.3272212785663475,51.55618680000409],[1.3701491855337617,51.551238238480565],[1.4372053862020122,51.53475125824178],[1.5674098662057345,51.50865603436255],[1.5901467158277245,51.502269073024856],[1.629378141225617,51.499394607210874],[1.7520959661634796,51.5007723452879],[1.7826044569800756,51.51367564018474],[1.8175355564951547,51.53920176763681],[1.8535256581776838,51.571759403478175],[1.8905747620276623,51.611348547708815],[1.928953706850221,51.64760597492071],[1.9686624926453598,51.68053168511387],[2.004974406514858,51.70749473182367],[2.0378894484587153,51.72849511505014],[2.052765860413873,51.757487918755146],[2.0496036423803314,51.79447314293871],[2.0644486478574966,51.82789821151684],[2.09730087684537,51.857763124489516],[2.113595943199092,51.87935637853738],[2.1133338469186635,51.89267797366044],[2.125069714266896,51.90460715056486],[2.1488035452437892,51.91514390925062],[2.1640166261602523,51.93375934196318],[2.170708957016285,51.96045344870252],[2.180955666607688,51.99013203759942],[2.194756754934462,52.02279510865388],[2.202673691924333,52.049495929549956],[2.2055387272021925,52.09096488940717],[2.2042740654098014,52.162012126948945],[2.210132272633396,52.17093298145198],[2.2223235085389943,52.16213207293153],[2.231827788995008,52.16959621395741],[2.238645114001438,52.19332540452963],[2.236937926083958,52.2221801415627],[2.2267062252425696,52.256160425056606],[2.226162721944848,52.28798317486785],[2.2353074161907935,52.317648390996425],[2.2503409452168843,52.35697213224755],[2.2693382826476514,52.378551982525124],[2.3003588362404406,52.40538426095572],[2.3253250632098275,52.434396080058036],[2.344236963555813,52.46558743983206],[2.3630628275700367,52.504916245941445],[2.381802655252498,52.55238249838619],[2.39337971208942,52.59240901904302],[2.397793998080802,52.62499580791196],[2.3958724083403338,52.675311913345936],[2.387614942868015,52.74335733534495],[2.397463942737411,52.82925368995396],[2.4254194079485214,52.93300097717294],[2.456226558309616,53.01455077126839],[2.4898853938206953,53.0739030722403],[2.537148367115674,53.139210709667815],[2.5980154781945517,53.210473683550916],[2.6431669561149587,53.25798750872241],[2.902123258489704,53.45821676694975],[2.992329892738307,53.49901625782297],[3.029541471080952,53.47089374387774],[3.0382271853385365,53.44869503453053],[3.01838703551106,53.43242012978135],[2.960218340073559,53.37321390362075],[2.934255269636144,53.34952476829867],[2.893518707093822,53.320635217781025],[2.8122422252611963,53.256153114606384],[2.7889045926896987,53.23243638010378],[2.7742217052607754,53.21020914320685],[2.7484954488950537,53.18499352981955],[2.7117258235925332,53.15678953994184],[2.6848020907739087,53.13304400403898],[2.667724250439181,53.11375692211094],[2.6531374495954276,53.0922549529418],[2.64104168824265,53.06853809653157],[2.6204142050329455,53.04035049798689],[2.5912549999663144,53.00769215730779],[2.567006311192118,52.97800612528921],[2.547668138710355,52.95129240193117],[2.516378094622081,52.900106040467065],[2.5092629601286767,52.87935592058091],[2.5094466630401304,52.863075347332014],[2.5024062225156443,52.83788318731572],[2.488141638555218,52.80377944053203],[2.479913007990552,52.77636170670343],[2.477720330821645,52.75562998582991],[2.4771285529676583,52.70308174953595],[2.4750406736388766,52.674209160530616],[2.470528541161002,52.64458556642475],[2.4708544665061947,52.61720363468464],[2.4799629593114707,52.566917484622095],[2.4826879954172436,52.54176599262017],[2.4844662320463717,52.493666927758866],[2.47143304075463,52.46918356139924],[2.4450895124536522,52.443899041253545],[2.4273005454962147,52.41421141955651],[2.4180661398823178,52.38012069630814],[2.4039655272850147,52.349704377451154],[2.3719888265493063,52.30291141829999],[2.3507774324471105,52.267270074651016],[2.3521528506241913,52.25543521689192],[2.3619916736505266,52.24216622223415],[2.367110823120637,52.22146998574186],[2.367510299034522,52.19334650741505],[2.3785550093385366,52.178600744337494],[2.4002449540326816,52.17723269650919],[2.41258384421564,52.15435142374992],[2.4171234532500416,52.08331899417475],[2.437556611720228,52.082672790986564],[2.6032854048322913,52.08999829186625],[2.6729830538767323,52.087251585181455],[2.742720236480117,52.078542553542235],[2.806416292827426,52.074228330131874],[3.0947000495762502,52.07652270489642],[3.1775607850684833,52.07278071875109],[3.2087480149782994,52.063847748102575],[3.2279083628489946,52.05271283007832],[3.2350418286805693,52.039375964678335],[3.2385613320217086,52.023825676959774],[3.2384668728724115,52.00606196692262],[3.2024455971330092,51.99649078768038],[2.9434532938693385,51.992194384016564],[2.858364254306029,51.98473806246537],[2.788899618359016,51.97131104002482],[2.71824078733447,51.96228009268391],[2.6463877612323907,51.95764522044264],[2.5709298867941,51.95517046335755],[2.491867164019597,51.95485582142865],[2.433272368618223,51.94720185006253],[2.395145500589979,51.93220854925919],[2.3606892185371073,51.91352347004093],[2.257746511119418,51.84185920975415],[2.2305286823454584,51.82540367855512],[2.213935800331833,51.81789193204841],[2.1938637902536207,51.80517167095138],[2.170312652110821,51.787242895264036],[2.15860589036154,51.77457794739719],[2.1587435050057784,51.76717682735084],[2.1495287789195054,51.75008447179392],[2.104293690281383,51.685350060980554],[2.103361390955735,51.67201905962003],[2.1130864512464043,51.661729739707084],[2.113306612060436,51.65062801554798],[2.10402187339783,51.63871388714273],[2.09368841437951,51.620128633241244],[2.0823062350054755,51.59487225384353],[2.055526548456771,51.56874615945654],[1.9711866626656347,51.51621974967028],[1.9290384722534877,51.49215435822657],[1.837761109438687,51.44391160423574],[1.787714130188926,51.41009417704011],[1.771503615427382,51.396600403552604],[1.7508021448928694,51.374912175731744],[1.725609718585388,51.345029493577535],[1.6995499771342493,51.30550727488452],[1.6726229205394523,51.2563455196527],[1.6432426270217921,51.21232980949257],[1.611409096581268,51.173460144404146],[1.5774910145606333,51.12789208490133],[1.5414883809598883,51.07562563098416],[1.513596897603181,51.028636172881846],[1.4938165644905124,50.98692371059437],[1.4651759677644969,50.96581803611017],[1.427675107425135,50.965319149429234],[1.4087222679025933,50.97098976120393],[1.4083174491968713,50.982829871434284],[1.4204549523196954,51.040001048147666],[1.4371198056415886,51.06835628815659],[1.4874210818322695,51.11121706345361],[1.5391274988209087,51.149632945058826],[1.5469924401479414,51.161576172389914],[1.56238978792255,51.196561047807954],[1.5735278972827293,51.21742613665718],[1.5960360326241707,51.252492829975516],[1.6166718284240709,51.27272419557943],[1.6466506995829702,51.29676416085813],[1.6680695367630327,51.331805825209756],[1.6918184717741096,51.41054411380182],[1.7007399321925862,51.429890600712326],[1.6931859355200751,51.44535089016957],[1.6691564817565756,51.456924982173575],[1.642925620118408,51.462545751455096],[1.614493350605572,51.46221319801416],[1.5850660027056551,51.455939076581586],[1.5546435764186572,51.44372338715736],[1.5309996040932927,51.44195098495775],[1.514134085729561,51.45062186998275],[1.4771983865861849,51.45680101274629],[1.1470239401095965,51.47493767037394],[0.9997400025278933,51.481401089021745],[0.8752300830577895,51.482208004832344],[0.7734941816992845,51.47735841780572],[0.6595753905127408,51.47882338442565],[0.5334737094981584,51.48660290469215],[0.4612786526598577,51.48437073411145],[0.4429902199978387,51.47212687268355],[0.4187529391976532,51.460487705365544],[0.38856681025930123,51.44945323215741],[0.3592747357412745,51.443614239557654],[0.33087671564357296,51.442970727566276],[0.3082197891447857,51.44541570694075],[0.2828460397949761,51.45371591305123],[0.29086871927703317,51.468339693655025],[0.30310131561418047,51.471952659892935]]]}},{"id":"1","type":"Feature","properties":{},"geometry":{"type":"Polygon","coordinates":[[[1.2944344979107956,51.96064905955566],[1.3173959958538262,51.94795666177865],[1.3287585984536845,51.944645779691236],[1.3527560198496098,51.94151124017998],[1.4513695337991712,51.946901016893555],[1.5019234200907654,51.94755522920028],[1.5188313408056175,51.9460328376523],[1.5499681420567109,51.93889688288559],[1.5613487475343124,51.93440630169305],[1.5685530273095267,51.928706733332504],[1.5732782823756712,51.912558321446014],[1.5736449302894788,51.90098716425874],[1.572526662564981,51.89200247966307],[1.5699234792021777,51.885604267659005],[1.5439051236960193,51.8514260004688],[1.533386707104496,51.84434954133619],[1.5079681826654938,51.835926842634315],[1.476276301767212,51.81989326491581],[1.44240432972242,51.80005963258902],[1.436051868313224,51.794766492402154],[1.431206788555241,51.77299692264769],[1.4311566466230423,51.74752895612784],[1.4295136871263487,51.741140125501126],[1.4135002269004688,51.71921964223159],[1.4047044393543948,51.70434104360938],[1.3960018530685794,51.673834918916],[1.3916158050346654,51.666250358335574],[1.378899309007175,51.631346576987994],[1.373747033852896,51.606386021263205],[1.3646768840302401,51.58715895144451],[1.3606733838864005,51.569304283944334],[1.3600885497437065,51.55974549948849],[1.3537743863316316,51.55459188740373],[1.3417308936501757,51.553843447690035],[1.335418509669624,51.56142396384056],[1.3348372343899761,51.57733343585532],[1.336224793765565,51.59023194047062],[1.3395811877963903,51.600119477686476],[1.3462338703329835,51.60889546095111],[1.3561828413753443,51.61655989026452],[1.3631799814658045,51.62881313143536],[1.3727809437658096,51.67235787384797],[1.3757062757657883,51.68165937625107],[1.3875302297904597,51.702659499831796],[1.3895902819436043,51.710212355844405],[1.3893230818386262,51.717733215041854],[1.392337438894525,51.724720077153634],[1.4111697416089943,51.7458132783384],[1.4141065998869975,51.755113947046226],[1.4137213621834672,51.76610601536481],[1.4156683128545549,51.777129460479365],[1.4199474519002608,51.78818428238989],[1.426145516267408,51.797817474915824],[1.4460975148586162,51.814867437273506],[1.5025274321992697,51.84511722321964],[1.5199316263401477,51.85575676649127],[1.5326730978447853,51.86633456436181],[1.5416242963228486,51.87860079820534],[1.546785221774337,51.89255546802187],[1.5482434861931664,51.90530676130367],[1.5459990895793372,51.91685467805073],[1.5387187810735035,51.92486698065708],[1.5264025606756657,51.929343669122716],[1.5076005166378794,51.93170972676666],[1.4823126489601448,51.931965153588926],[1.3626010086537963,51.928335138874814],[1.3204605850350135,51.92861061463586],[1.3063594591160776,51.93014492242856],[1.295868350398386,51.9352031292446],[1.2889872588819389,51.94378523508396],[1.2775224323819818,51.949694710986094],[1.2543521685102463,51.95543155277552],[1.2561573252171765,51.95719469845967],[1.2807708001649816,51.96276510167551],[1.2944344979107956,51.96064905955566]]]}},{"id":"2","type":"Feature","properties":{},"geometry":{"type":"Polygon","coordinates":[[[0.9894159841983692,51.815179968583514],[1.0034907804870936,51.813683351496046],[1.0106809865011501,51.8094646532435],[1.013119270375329,51.796482183069976],[1.0219324762180115,51.787080082874596],[1.0276797263128052,51.783703688766444],[1.030679278801343,51.779123450698705],[1.032719559489869,51.76439744206667],[1.0504623098617065,51.75311612172704],[1.0641985492407648,51.74813335670353],[1.113556392986563,51.73851719283759],[1.128654078233328,51.73412837340012],[1.1419576421543516,51.727972441594964],[1.1891345996143112,51.71365997846576],[1.1986536910740975,51.70859692956946],[1.203516349880779,51.703462276300954],[1.2037225760343557,51.69825601866024],[1.207220091411727,51.69223166226608],[1.2445776097958325,51.65343594786272],[1.2606094216542838,51.62357564409121],[1.2683090311239038,51.61674357125417],[1.2723783994607842,51.60754249152122],[1.2728175266649249,51.59597240489236],[1.276128218481913,51.58212908088669],[1.284506229589112,51.557072893054105],[1.2781190947552084,51.55408500212161],[1.2707170663127272,51.553397294809834],[1.2644527785731614,51.559382614504734],[1.2560991334748925,51.58356973459303],[1.254771484388305,51.59396893466491],[1.249748304788285,51.6037339940217],[1.241029594674832,51.612864912663426],[1.234586355777794,51.623187273652945],[1.2304185880971714,51.63470107699026],[1.2239459320252637,51.6456008663125],[1.1948441794155713,51.67554535561249],[1.1830069987243452,51.68057205326963],[1.1582656435490017,51.68221274511631],[1.1479351455158646,51.6843655955454],[1.131675484428904,51.68352797077254],[1.087791579209004,51.675296892183866],[1.0665902411915575,51.67031903493097],[1.0326470963923429,51.6587579310526],[0.997122281317207,51.651789682169806],[0.9787979830346127,51.64539777110654],[0.9606453796771832,51.63524340929033],[0.9386516614079337,51.627911957988644],[0.9128168282268642,51.62340341720147],[0.8651795271963256,51.6179161523038],[0.842880688440153,51.617508654787756],[0.821429600554477,51.618848989425054],[0.8096494431112211,51.62210434445415],[0.8075402161103856,51.62727471987503],[0.8223245965028887,51.629283361398656],[0.8809400603814318,51.62891075575889],[0.9243291099333457,51.63605372052487],[0.9687799331615072,51.6510117904994],[1.038748441737086,51.67911907173688],[1.0604149160374121,51.68410870730956],[1.1596346611683401,51.694389598887604],[1.1617613256195496,51.699343154123646],[1.1558230341307314,51.70793246716867],[1.1429684494199805,51.71467473982914],[1.0864009880170826,51.73026372859419],[1.0016704428807068,51.73869394601876],[0.9921490205696274,51.743162299302774],[0.9723481943260823,51.74802919033137],[0.9422679641500716,51.753294619104544],[0.9197724325538753,51.755794866501084],[0.9048615995374933,51.755529932520986],[0.8856075037031601,51.74852719814396],[0.8620101450508755,51.73478666337001],[0.8445265351294101,51.72983778347965],[0.8331566739387642,51.7336805584729],[0.8369796685360563,51.74156470897384],[0.8559955189212866,51.75349023498249],[0.8756617320514759,51.761661721609514],[0.913594177020436,51.76841982857166],[0.9584573770744487,51.76660303333369],[0.9721289601373465,51.76336697455795],[0.9844784885396091,51.7583699260199],[0.9962578732737246,51.7556772920997],[1.007467114339693,51.75528907279734],[1.0138388934770262,51.7588703373644],[1.0153732106857243,51.766421085800864],[1.01171474037019,51.77533090778837],[0.9944230367214074,51.79703275760395],[0.9863934029431405,51.80962977061948],[0.9894159841983692,51.815179968583514]]]}},{"id":"3","type":"Feature","properties":{},"geometry":{"type":"Polygon","coordinates":[[[0.6675612372300737,51.43672767910207],[0.6994401470701108,51.4382271192465],[0.7076811837362692,51.44012528673313],[0.7138846758611076,51.44574604807124],[0.718050623444626,51.45508940326086],[0.7261226553804838,51.46045585446039],[0.7702240108419047,51.46824921626063],[0.8036061429843224,51.47756274645407],[0.8206291498612079,51.480195852234765],[0.847095533326401,51.479238725595174],[0.8472317359275594,51.47634687069471],[0.8309593399767922,51.467652850522576],[0.7697916097446675,51.45811113070571],[0.7580118254751558,51.45267645137372],[0.7481856806455676,51.44525227209859],[0.7403131752559028,51.43583859288034],[0.7242755528363822,51.42308216510079],[0.7077255416087779,51.420731638982616],[0.6826930989700282,51.42139697885988],[0.6603316412060096,51.42413833289089],[0.6573645318086183,51.427841977433346],[0.6579938039769312,51.433643477123354],[0.6675612372300737,51.43672767910207]]]}},{"id":"4","type":"Feature","properties":{},"geometry":{"type":"Polygon","coordinates":[[[0.8279195178154414,51.36571406720282],[0.8811009603763164,51.36553060499161],[0.913244106076561,51.37044847294042],[0.9341380054645828,51.37892236682892],[0.9575769203717618,51.39264741863194],[0.9784429334430043,51.40198251543032],[0.9967360446783102,51.40692765722407],[1.0292826987616923,51.41413683161696],[1.0454084910354673,51.41585399044839],[1.1538894988050954,51.423111298879384],[1.174108755806322,51.42690240132505],[1.189588577921948,51.43350989909001],[1.1990775458026048,51.4394453079635],[1.2025756594482928,51.444708627945516],[1.215467701654451,51.446640614003165],[1.3339328014652834,51.43680579513138],[1.4298606604619488,51.43465731357918],[1.470541898966592,51.43664458559149],[1.4852392858378147,51.44030877474658],[1.4980105289031793,51.44626139546986],[1.5084134094684505,51.45391928273294],[1.516447927533628,51.46328243653582],[1.5321445755147525,51.46492555248637],[1.5555033534118232,51.458848630584605],[1.5672370855300124,51.4540743656923],[1.5673457718693204,51.45060275780947],[1.559649509740118,51.44500884377758],[1.515852902397058,51.424493143770825],[1.4988638916929284,51.42022425745782],[1.4785823979156631,51.41764739798868],[1.390134757854346,51.418780430289516],[1.3219568126900327,51.42245516146824],[1.228410329399358,51.42339475459053],[1.1338127192239478,51.40456138181497],[1.0935807070714567,51.40391136475964],[1.041476535714225,51.399578958802714],[1.0176730636405584,51.39367999527056],[0.9958617865863812,51.3846258906097],[0.9633525275916949,51.36669993545074],[0.9152887104245832,51.345881328102806],[0.8950832017844651,51.34291678378895],[0.8819139247339483,51.34788923276465],[0.8660656354203641,51.35078479787669],[0.8327326807312907,51.35191033957868],[0.8248497020687541,51.36218407534802],[0.8279195178154414,51.36571406720282]]]}},{"id":"5","type":"Feature","properties":{},"geometry":{"type":"Polygon","coordinates":[[[1.6560450396419293,51.2215687638806],[1.6571180503956775,51.21637152506068],[1.6646056069425836,51.21240472465616],[1.6785077092826481,51.209668362667024],[1.6965054344056372,51.20871162089373],[1.739318678025614,51.21005042658072],[1.7643070858347545,51.22334021436478],[1.7919368387980077,51.24186199556686],[1.799144367928645,51.24830390402035],[1.7999849974849558,51.26915036860488],[1.8026245544959014,51.27409734035456],[1.8081749163339,51.273575149890476],[1.8124305306360093,51.26956667408505],[1.816931238976911,51.256009817665316],[1.8170500553600517,51.25138038826622],[1.810373496359259,51.24205137980178],[1.7887260774341056,51.22359613787991],[1.7915957378418532,51.219573705354385],[1.8279299012113257,51.20431451263251],[1.8391596378783277,51.19748106509639],[1.8373687958634248,51.19543725984367],[1.830951079248544,51.19421564251122],[1.8221715806982255,51.19528499183416],[1.8110303002124692,51.19864530781247],[1.7913696966110906,51.210599504597866],[1.78346367738637,51.213411895334346],[1.7770449478425951,51.21218731760983],[1.7615849385894693,51.204499767102924],[1.75757143502747,51.19953732427994],[1.7577115242242978,51.19432927973039],[1.7601687499460028,51.188566900359945],[1.7649431121925854,51.1822501861686],[1.7719715906140934,51.17769327341523],[1.8081445241621272,51.16764791969826],[1.823844580809264,51.16578073057537],[1.8631711645077753,51.16703838283936],[1.8746991512782332,51.17583205579621],[1.888104821212158,51.19274637978405],[1.8997991310112439,51.20443382280375],[1.9220786128912026,51.217085633828546],[1.9366887276583804,51.22300756972348],[1.9472587957330119,51.22426133951221],[1.982214893221105,51.20662683731302],[1.9860533963619784,51.19971450553609],[1.98441472961495,51.19043905494446],[1.9817536883109743,51.18578527146407],[1.9780702724500514,51.18575315509492],[1.9747828108334307,51.18861855141539],[1.9633226361569778,51.20675060303064],[1.9563350758165148,51.21016125163045],[1.937448205062222,51.209991218804355],[1.9273539983604644,51.20816263775359],[1.9191781175305058,51.20316755333092],[1.9044929518267326,51.18132491252236],[1.88968272811207,51.16526741213245],[1.8886358207132137,51.15136543500268],[1.8947473491097195,51.14592394913642],[1.906803550614552,51.14198541334244],[1.9197311288751897,51.14007946849252],[1.9335300838916334,51.14020611458666],[1.9414088941564371,51.137673537491324],[1.9472244077341596,51.1247022466266],[1.9528074043394137,51.12185793724932],[1.9846851416296918,51.115192861544685],[1.9944146556236868,51.111804212862225],[2.0018695084233484,51.107237407504144],[2.01110034794815,51.105579126968905],[2.050964999107398,51.11198685448347],[2.080816475232676,51.113672494337855],[2.096497743520034,51.111190566215896],[2.099295479084696,51.10918633859656],[2.0993404762884853,51.10687135828955],[2.04797909423116,51.1006745481079],[2.0150240557406964,51.09403523672535],[1.9648256557975399,51.077973485731086],[1.9403190556781118,51.06472968475264],[1.9349400899134308,51.05889275693966],[1.9350595816932326,51.05368426142677],[1.9446035479906976,51.037852644331124],[1.94468243122421,51.0343802911117],[1.9408096901187097,51.023057748202326],[1.939723408511068,51.010313299626105],[1.9370641013105414,51.006237111564396],[1.9316003007096365,51.004450730869664],[1.927750367204474,51.01222996649303],[1.9211580930954826,51.05905575278131],[1.9213424362046905,51.07092372114459],[1.9238699054196802,51.08078731895377],[1.9306467715035835,51.085769288695076],[1.9549646643880294,51.087435912801055],[1.9705216612984702,51.090468135992644],[1.9805597157687944,51.09374041785704],[1.9850788277990024,51.097252758394234],[1.9804059735160733,51.10068457332169],[1.9665411529200065,51.10403586263942],[1.9499171177080035,51.1073612451768],[1.9370339967455659,51.107823669668726],[1.930058293543313,51.111233021853955],[1.9155311354882696,51.122965403843835],[1.8848705197689415,51.13570039686488],[1.8759996132948977,51.14111499947657],[1.8674230315796168,51.153187863034525],[1.8544902856108445,51.1550860165767],[1.7826474683151545,51.15696510816361],[1.7636181426115967,51.16284452232272],[1.7495002739269159,51.174271238771354],[1.7413705551283343,51.185472031110365],[1.739228986215852,51.19644689933976],[1.7271215346304696,51.20123438230627],[1.6649995458061893,51.19880588406794],[1.6506384698554284,51.20153626205657],[1.6412576429118109,51.20721611456302],[1.6413025556462655,51.21358387643481],[1.650773208058792,51.22063954767197],[1.6560450396419293,51.2215687638806]]]}},{"id":"6","type":"Feature","properties":{},"geometry":{"type":"Polygon","coordinates":[[[1.9305135413712553,51.09155681465518],[1.9228707714935962,51.084251057352176],[1.9228707714935962,51.084251057352176],[1.9291555235022964,51.090676035727185],[1.9294600373773547,51.09733550363801],[1.9124073238535244,51.118884559835685],[1.9141789487025471,51.1217950436133],[1.9234149498245623,51.12014393115005],[1.9420034359304845,51.11163104014622],[1.9454002425464632,51.103847671393694],[1.9403013612421676,51.08556817200402],[1.9288357892337433,51.08459524524978],[1.926944825100473,51.08689339413614],[1.9305135413712553,51.09155681465518]]]}},{"id":"7","type":"Feature","properties":{},"geometry":{"type":"Polygon","coordinates":[[[2.163363042215823,51.9607702190198],[2.1517128453626437,51.982389803854595],[2.145042571075128,51.98812886614349],[2.1365181798367896,51.99269663800276],[2.1321720359728387,51.99932048417648],[2.1320041394832767,52.008000404664635],[2.1252577468947815,52.01720983211962],[2.1119328582073535,52.02694876654144],[2.100926598815692,52.03786193110662],[2.1041247881910663,52.042226600125986],[2.113417043640446,52.04692680659522],[2.116065378657228,52.05533865081506],[2.107173284898098,52.07755300806555],[2.1013758536272866,52.08561127665516],[2.1007620849931525,52.092840843916456],[2.1053319789956966,52.09924170984944],[2.113685342770776,52.10451301977188],[2.1258221763183904,52.108654773683796],[2.1317331010155565,52.11882673824443],[2.1314181168622737,52.13502891345378],[2.1269019784065284,52.149463601705314],[2.1181846856483197,52.16213080299904],[2.113607324959614,52.17945856423014],[2.1114105420600535,52.21879538346035],[2.104833298639517,52.241315866427826],[2.1009226516229704,52.24823080749795],[2.1007831371892105,52.25517440237146],[2.104414755338237,52.26214665104837],[2.1099686255342283,52.26739699087749],[2.1239447496341413,52.27618236748536],[2.1294686311051017,52.28316782775714],[2.129780232096845,52.291272179038046],[2.1121692797625817,52.32239165539247],[2.1001529282377054,52.332716801652275],[2.0829601805899873,52.34184401889228],[2.0605875051641735,52.34976878112637],[1.9836575407426071,52.366494215853336],[1.958902822218831,52.37380171994782],[1.9331274249150798,52.38398874554702],[1.9111099671996208,52.39478461430424],[1.8928504490724545,52.40618932621949],[1.8802390661692359,52.418513826426455],[1.863902343354639,52.446425349504274],[1.8521186407632553,52.46251553016387],[1.8421993753869135,52.479491085683215],[1.8341445472256126,52.497352016062294],[1.8366566209826984,52.5101080096278],[1.8497355966581708,52.51775906637974],[1.8537143028424958,52.5287935582214],[1.8469356756749544,52.55216535599223],[1.8548233252343587,52.57741544331709],[1.8608082907319348,52.58470675472477],[1.8754496504271672,52.58802973273675],[1.8838010489995867,52.59592111673008],[1.889326089841406,52.60291743076085],[1.8919205612791656,52.61306901362391],[1.891584463312866,52.626375865319254],[1.8974829267809543,52.63771497205029],[1.9227109887690077,52.65617623092799],[1.927566032383432,52.652169422699224],[1.9325904365227218,52.64121966208995],[1.9333279462882402,52.630520539278216],[1.9227060805661405,52.59830688717394],[1.9212385092009505,52.580643320152916],[1.911899857904777,52.574191061652485],[1.8930236498203974,52.56938649498052],[1.8836956841656511,52.562644987305326],[1.8839159609405387,52.55396653862689],[1.8874277146076768,52.5464763229026],[1.8942309451670658,52.540174340132474],[1.8977339567893163,52.53297336659307],[1.8979367494744286,52.524873402284385],[1.8938287619556922,52.5184691025371],[1.8854099942331068,52.51376046735119],[1.8808294571926145,52.507351688588365],[1.8797159976550153,52.49518830507875],[1.8916870348657284,52.47157394981022],[1.898937112097037,52.46585426570783],[1.9094433150502372,52.46247934012477],[1.9133756879776012,52.45672875626556],[1.9090259268302971,52.44106354480901],[1.9080776667201502,52.4219572837638],[1.91626909852199,52.41595532793796],[1.96785263779414,52.39558305688957],[2.0497297712198574,52.371385055664234],[2.0664313688962004,52.363995212447776],[2.14435238870479,52.31857747021921],[2.1544564895972074,52.30881288709467],[2.158408148218883,52.29958168696281],[2.1670713168135887,52.26549889952062],[2.1742939646558295,52.25744720070354],[2.19765256706292,52.243429608100456],[2.2099789160951513,52.23946171719971],[2.230414262530867,52.22975870102817],[2.2381062669418466,52.220838633754354],[2.243975494484073,52.20814454635416],[2.241705235930744,52.20321062937126],[2.23129549128186,52.206036882805634],[2.1860767280956375,52.232065772547315],[2.1822858595905092,52.23319701134953],[2.1799832766503067,52.23028747737183],[2.180222731614471,52.217267899507426],[2.1831445336686324,52.21207966405144],[2.223918466828462,52.16981847432847],[2.2283103440081713,52.16087733970774],[2.2274996797684197,52.15334860043659],[2.2092625290171517,52.120818495386615],[2.2007285541048955,52.12452306243226],[2.192869415094192,52.16932105368275],[2.1926913492835363,52.179158163081155],[2.1882911459039085,52.18809796873418],[2.163827844343209,52.2122335800421],[2.158461518151694,52.22203386686196],[2.1507992517662906,52.25322991336698],[2.147405288018121,52.25812450971762],[2.142679412487553,52.25866900609099],[2.131948860094489,52.25280337301827],[2.129727097838281,52.24584246464411],[2.1308619830777187,52.2360125687354],[2.135254377908719,52.22823190985506],[2.1491558198743235,52.215890522659144],[2.154008990537845,52.2084020138232],[2.156506771712398,52.20089656064288],[2.1558008549448737,52.188448927611056],[2.148938834170009,52.177982550524156],[2.147659443323888,52.171028613510124],[2.1478363335564197,52.16177025071711],[2.1503587225946315,52.15281808417526],[2.1663183880114283,52.129493401795415],[2.1702355007525718,52.12112952219519],[2.1722978371342188,52.11130558095726],[2.171508881065356,52.103197759181576],[2.1578227811678636,52.08139819648951],[2.1570403110391134,52.07300098395765],[2.1629781014222336,52.05683871963077],[2.1633834123083187,52.03513889819697],[2.1611409298557116,52.029624858839725],[2.1565047049949846,52.026698055841344],[2.15286739970875,52.0205952179112],[2.1502290139970075,52.01131634504931],[2.1508449478289178,52.0035077384921],[2.154715201204481,51.997169398239585],[2.158697336543831,51.98475488786019],[2.163363042215823,51.9607702190198]]]}},{"id":"8","type":"Feature","properties":{},"geometry":{"type":"Polygon","coordinates":[[[3.253984791996801,52.07543428515108],[3.3291362665719633,52.07756329438623],[3.4624327145249123,52.07354468332963],[3.653874135855649,52.06337845198128],[3.8094677649575237,52.04859374580596],[3.989086520267042,52.01948897430255],[4.2425067924369415,51.95689736995418],[4.438805380896,51.944189392818316],[4.569754289579754,51.93904316947026],[4.7007863813078865,51.937222707531376],[4.761302138986548,51.90397403842177],[4.751301562615739,51.83929716214144],[4.710838678250273,51.807464073339474],[4.604450889710091,51.80898012135407],[4.325755717319225,51.86095977480602],[4.16773669828916,51.8939442628815],[3.9294706394424117,51.95050109702319],[3.800758117000154,51.97925016712483],[3.558938472690613,51.97709091562496],[3.245928450307448,51.97708576378397],[3.223788903608777,52.050048776346124],[3.253984791996801,52.07543428515108]]]}}]}