{"type":"FeatureCollection","features":[{"id":"0","type":"Feature","properties":{},"geometry":{"type":"Point","coordinates":[-1.488721484308017,0.0004730439768587825,0.0]}},{"id":"1","type":"Feature","properties":{},"geometry":{"type":"Point","coordinates":[-1.4887199254138628,0.00047328454900417657,0.0]}},{"id":"2","type":"Feature","properties":{},"geometry":{"type":"Point","coordinates":[-1.4887237407216891,0.0004770862924489192,0.0]}},{"id":"3","type":"Feature","properties":{},"geometry":{"type":"Point","coordinates":[-1.48871594753661,0.0004737806807937878,0.0]}},{"id":"4","type":"Feature","properties":{},"geometry":{"type":"Point","coordinates":[-1.4887221504776265,0.0004777341971374664,0.0]}},{"id":"5","type":"Feature","properties":{},"geometry":{"type":"Point","coordinates":[-1.488722165355219,0.00047773274560867905,0.0]}},{"id":"6","type":"Feature","properties":{},"geometry":{"type":"Point","coordinates":[-1.488721968270354,0.0004784287128030429,0.0]}},{"id":"7","type":"Feature","properties":{},"geometry":{"type":"Point","coordinates":[-1.4887219757947554,0.00047842420401723553,0.0]}},{"id":"8","type":"Feature","properties":{},"geometry":{"type":"Point","coordinates":[-1.488722425213947,0.00047920295272664364,0.0]}},{"id":"9","type":"Feature","properties":{},"geometry":{"type":"Point","coordinates":[-1.4887222251456196,0.00047877145255330854,0.0]}},{"id":"10","type":"Feature","properties":{},"geometry":{"type":"Point","coordinates":[-1.4887221026459636,0.0004779145846905952,0.0]}},{"id":"11","type":"Feature","properties":{},"geometry":{"type":"Point","coordinates":[-1.488722145999039,0.0004777507898167908,0.0]}},{"id":"12","type":"Feature","properties":{},"geometry":{"type":"Point","coordinates":[3.522677633663932,52.91462592061256,0.0]}},{"id":"13","type":"Feature","properties":{},"geometry":{"type":"Point","coordinates":[3.6840073148542904,52.854621373499704,0.0]}},{"id":"14","type":"Feature","properties":{},"geometry":{"type":"Point","coordinates":[3.7199134996706613,52.87064492024058,0.0]}},{"id":"15","type":"Feature","properties":{},"geometry":{"type":"Point","coordinates":[3.5936210203848162,52.85779891090911,0.0]}},{"id":"16","type":"Feature","properties":{},"geometry":{"type":"Point","coordinates":[3.6840073148542904,52.854621373499704,0.0]}},{"id":"17","type":"Feature","properties":{},"geometry":{"type":"Point","coordinates":[3.6840046104305397,52.85464772926411,0.0]}},{"id":"18","type":"Feature","properties":{},"geometry":{"type":"Point","coordinates":[3.54371372803741,54.306740523823244,0.0]}},{"id":"19","type":"Feature","properties":{},"geometry":{"type":"Point","coordinates":[3.539330795427806,54.22021976802637,0.0]}},{"id":"20","type":"Feature","properties":{},"geometry":{"type":"Point","coordinates":[3.5408541029495058,54.21260493134663,0.0]}},{"id":"21","type":"Feature","properties":{},"geometry":{"type":"Point","coordinates":[3.5347291679130834,54.199001229347196,0.0]}},{"id":"22","type":"Feature","properties":{},"geometry":{"type":"Point","coordinates":[3.5546560441142354,54.19320511076809,0.0]}},{"id":"23","type":"Feature","properties":{},"geometry":{"type":"Point","coordinates":[3.587679101218103,54.196535574178974,0.0]}},{"id":"24","type":"Feature","properties":{},"geometry":{"type":"Point","coordinates":[3.6180988417355637,54.20621042925471,0.0]}},{"id":"25","type":"Feature","properties":{},"geometry":{"type":"Point","coordinates":[3.6379929787027465,54.19881566751117,0.0]}},{"id":"26","type":"Feature","properties":{},"geometry":{"type":"Point","coordinates":[3.000218987647786,55.00032423233492,0.0]}},{"id":"27","type":"Feature","properties":{},"geometry":{"type":"Point","coordinates":[1.207319842295885,53.11881309362137,0.0]}},{"id":"28","type":"Feature","properties":{},"geometry":{"type":"Point","coordinates":[1.7434381627331288,53.33538589390208,0.0]}},{"id":"29","type":"Feature","properties":{},"geometry":{"type":"Point","coordinates":[2.000185641649123,52.99999333625837,0.0]}},{"id":"30","type":"Feature","properties":{},"geometry":{"type":"Point","coordinates":[3.396667367562845,52.53590734518013,0.0]}},{"id":"31","type":"Feature","properties":{},"geometry":{"type":"Point","coordinates":[3.0764379524997167,52.481671190359926,0.0]}},{"id":"32","type":"Feature","properties":{},"geometry":{"type":"Point","coordinates":[3.387400303657985,52.55004362806747,0.0]}},{"id":"33","type":"Feature","properties":{},"geometry":{"type":"Point","coordinates":[3.391632996522246,52.546730308793116,0.0]}},{"id":"34","type":"Feature","properties":{},"geometry":{"type":"Point","coordinates":[3.407092305388124,52.547217570524076,0.0]}},{"id":"35","type":"Feature","properties":{},"geometry":{"type":"Point","coordinates":[3.38770144434251,52.522289923712705,0.0]}},{"id":"36","type":"Feature","properties":{},"geometry":{"type":"Point","coordinates":[3.5531857841940404,52.51619306249642,0.0]}},{"id":"37","type":"Feature","properties":{},"geometry":{"type":"Point","coordinates":[1.327619706192866,53.390132126741015,0.0]}},{"id":"38","type":"Feature","properties":{},"geometry":{"type":"Point","coordinates":[1.0269939756046669,53.292366908938774,0.0]}},{"id":"39","type":"Feature","properties":{},"geometry":{"type":"Point","coordinates":[1.0378523864582883,53.295958255063184,0.0]}},{"id":"40","type":"Feature","properties":{},"geometry":{"type":"Point","coordinates":[1.5036221910519265,53.32905596011798,0.0]}},{"id":"41","type":"Feature","properties":{},"geometry":{"type":"Point","coordinates":[1.4085310281810919,53.40781065689775,0.0]}},{"id":"42","type":"Feature","properties":{},"geometry":{"type":"Point","coordinates":[1.3530167009868523,53.13127224082161,0.0]}},{"id":"43","type":"Feature","properties":{},"geometry":{"type":"Point","coordinates":[1.503997826431981,53.32867635696012,0.0]}},{"id":"44","type":"Feature","properties":{},"geometry":{"type":"Point","coordinates":[1.1465360076328244,53.250994091291815,0.0]}},{"id":"45","type":"Feature","properties":{},"geometry":{"type":"Point","coordinates":[1.1018648779312643,53.27943799393319,0.0]}},{"id":"46","type":"Feature","properties":{},"geometry":{"type":"Point","coordinates":[1.101506033250278,53.28008857992259,0.0]}},{"id":"47","type":"Feature","properties":{},"geometry":{"type":"Point","coordinates":[1.3687519391785024,53.12109804742867,0.0]}},{"id":"48","type":"Feature","properties":{},"geometry":{"type":"Point","coordinates":[3.226720513275762,53.417644018836235,0.0]}},{"id":"49","type":"Feature","properties":{},"geometry":{"type":"Point","coordinates":[2.438680736560873,54.933198021190876,0.0]}},{"id":"50","type":"Feature","properties":{},"geometry":{"type":"Point","coordinates":[2.1943106461620934,54.992625199286444,0.0]}},{"id":"51","type":"Feature","properties":{},"geometry":{"type":"Point","coordinates":[1.324041381419302,53.28080841206249,0.0]}},{"id":"52","type":"Feature","properties":{},"geometry":{"type":"Point","coordinates":[2.414138708469279,52.346211791262625,0.0]}},{"id":"53","type":"Feature","properties":{},"geometry":{"type":"Point","coordinates":[2.5548434021011226,52.37838337497695,0.0]}},{"id":"54","type":"Feature","properties":{},"geometry":{"type":"Point","coordinates":[2.12706596140534,51.903075548025704,0.0]}},{"id":"55","type":"Feature","properties":{},"geometry":{"type":"Point","coordinates":[1.1533483472109427,51.74629506433001,0.0]}},{"id":"56","type":"Feature","properties":{},"geometry":{"type":"Point","coordinates":[1.1515265971619617,51.75001518521192,0.0]}},{"id":"57","type":"Feature","properties":{},"geometry":{"type":"Point","coordinates":[1.1515641404623898,51.74992953838741,0.0]}},{"id":"58","type":"Feature","properties":{},"geometry":{"type":"Point","coordinates":[1.1513720979287556,51.75432705235417,0.0]}},{"id":"59","type":"Feature","properties":{},"geometry":{"type":"Point","coordinates":[1.1512958502901969,51.755452423861094,0.0]}},{"id":"60","type":"Feature","properties":{},"geometry":{"type":"Point","coordinates":[1.1511262155889703,51.7594701769565,0.0]}},{"id":"61","type":"Feature","properties":{},"geometry":{"type":"Point","coordinates":[1.1509014884430244,51.764831516341275,0.0]}},{"id":"62","type":"Feature","properties":{},"geometry":{"type":"Point","coordinates":[1.1508072573543275,51.767495204230315,0.0]}},{"id":"63","type":"Feature","properties":{},"geometry":{"type":"Point","coordinates":[1.1616683258728842,51.73336581649678,0.0]}},{"id":"64","type":"Feature","properties":{},"geometry":{"type":"Point","coordinates":[1.1533483472109427,51.74629506433001,0.0]}},{"id":"65","type":"Feature","properties":{},"geometry":{"type":"Point","coordinates":[1.1515265971619617,51.75001518521192,0.0]}},{"id":"66","type":"Feature","properties":{},"geometry":{"type":"Point","coordinates":[1.1515641404623898,51.74992953838741,0.0]}},{"id":"67","type":"Feature","properties":{},"geometry":{"type":"Point","coordinates":[1.1513720979287556,51.75432705235417,0.0]}},{"id":"68","type":"Feature","properties":{},"geometry":{"type":"Point","coordinates":[1.1512958502901969,51.755452423861094,0.0]}},{"id":"69","type":"Feature","properties":{},"geometry":{"type":"Point","coordinates":[1.1511262155889703,51.7594701769565,0.0]}},{"id":"70","type":"Feature","properties":{},"geometry":{"type":"Point","coordinates":[1.1509014884430244,51.764831516341275,0.0]}},{"id":"71","type":"Feature","properties":{},"geometry":{"type":"Point","coordinates":[1.1508072573543275,51.767495204230315,0.0]}},{"id":"72","type":"Feature","properties":{},"geometry":{"type":"Point","coordinates":[1.1616683258728842,51.73336581649678,0.0]}},{"id":"73","type":"Feature","properties":{},"geometry":{"type":"Point","coordinates":[0.8950705766032835,53.22536590985198,0.0]}},{"id":"74","type":"Feature","properties":{},"geometry":{"type":"Point","coordinates":[0.879284416616716,53.271937010991046,0.0]}},{"id":"75","type":"Feature","properties":{},"geometry":{"type":"Point","coordinates":[0.8079650837449328,53.29455350185657,0.0]}},{"id":"76","type":"Feature","properties":{},"geometry":{"type":"Point","coordinates":[0.8597944802144637,53.25696555714846,0.0]}},{"id":"77","type":"Feature","properties":{},"geometry":{"type":"Point","coordinates":[0.9122394715652216,53.267292286043514,0.0]}},{"id":"78","type":"Feature","properties":{},"geometry":{"type":"Point","coordinates":[0.8900427151617434,53.243399188596776,0.0]}},{"id":"79","type":"Feature","properties":{},"geometry":{"type":"Point","coordinates":[0.8988079681794371,53.23704798124702,0.0]}},{"id":"80","type":"Feature","properties":{},"geometry":{"type":"Point","coordinates":[0.8260849184760557,53.28453880322607,0.0]}},{"id":"81","type":"Feature","properties":{},"geometry":{"type":"Point","coordinates":[0.8508018342910688,53.286821542770575,0.0]}},{"id":"82","type":"Feature","properties":{},"geometry":{"type":"Point","coordinates":[0.8630248765378857,53.282708434912436,0.0]}}]}